FID,FID_,address,adname,adcode,pname,cityname,name,long,lat,_id,type,data_proce
0,70,东中街9号地下一层EA9A号,东城区,110101,北京市,北京市,北京幸福蜜思甜功坊食品中心,116.436288,39.938691,k#20170617#9532fdae0c8290ad5f2569de212c0833,餐饮服务;餐饮相关场所;餐饮相关, 
1,87,西单新一代商城七层,西城区,110102,北京市,北京市,十三王爷快餐店,116.375193,39.911775,f#20170617#3071c16e395276e477c0ed30a5a3e507,餐饮服务;餐饮相关场所;餐饮相关, 
2,110,丰台北路18号恒泰广场5层K04,丰台区,110106,北京市,北京市,凸凸鲁(恒泰广场店),116.307056,39.866575,1#20170618#f50a1fae2973988adfff2611b3693cbe,餐饮服务;餐饮相关场所;餐饮相关, 
3,137,新居里甲3号楼1层12,大兴区,110115,北京市,北京市,久久鸭周黑鸭,116.35644,39.739043,h#20170618#36172aa1b0b7a7dd00b49295618506c2,餐饮服务;餐饮相关场所;餐饮相关, 
4,151,良乡镇太平庄加油站对面-碟翠苑小区1号8,房山区,110111,北京市,北京市,果立方(蝶翠苑店),116.118196,39.729573,9#20170618#8d92ca9f0e5b216a0273bae41d07ac3f,餐饮服务;餐饮相关场所;餐饮相关, 
5,184,天竺镇俯前二街小王辛庄南路10号(林海缘ktv北50米),顺义区,110113,北京市,北京市,纪妈妈老汤剁馅汤水饺,116.574951,40.065582,y#20170618#7851e022791d31cccd3ca10b7c9897ba,餐饮服务;餐饮相关场所;餐饮相关, 
6,218,花园东路16号院1号楼一层南侧(住宅),海淀区,110108,北京市,北京市,黄焖鸡米饭(后街翅吧),116.370895,39.98066,3#20170618#2250e1970fb1b8f221137ecc4d063911,餐饮服务;餐饮相关场所;餐饮相关, 
7,240,马连道华睦大厦一层,西城区,110102,北京市,北京市,龙润茶家庭茶室,116.32514,39.88139,7#20170617#f84000bb9dec3ce5ff537dd884b2d931,餐饮服务;餐饮相关场所;餐饮相关, 
8,243,怡乐北街105号附近,通州区,110112,北京市,北京市,凉皮凉面素丸子,116.648968,39.888371,2#20170618#49c32d406b110601afeca3e22fe558c2,餐饮服务;餐饮相关场所;餐饮相关, 
9,341,永辉超市千禧街店1层,丰台区,110106,北京市,北京市,千禧鸿运美食城,116.28406,39.88999,g#20170621#5716536106aa67af80329befc8d68550,餐饮服务;餐饮相关场所;餐饮相关, 
10,351,沙河北大桥北二村,昌平区,110114,北京市,北京市,吉得利味觉体验馆,116.262973,40.135838,9#20170618#e46638511a370d49d2f5cda93a33e320,餐饮服务;餐饮相关场所;餐饮相关, 
11,483,前门大街52号(前门大街),东城区,110101,北京市,北京市,庆丰包子铺(前门店),116.39833,39.895565,y#20170617#d360bc78fb7ce7c30db244716015a291,餐饮服务;餐饮相关场所;餐饮相关, 
12,494,团河中街西三巷13号附近,大兴区,110115,北京市,北京市,小五特色饼屋,116.385462,39.749394,i#20170618#4ab10942c7ca960fd1befb8742b11adf,餐饮服务;餐饮相关场所;餐饮相关, 
13,516,胡家垡路与铺胡路交叉口东150米,通州区,110112,北京市,北京市,焰福大铁锅烧烤坊,116.6134,39.834673,1#20170618#115c72eb65feeb08e55dd6033ce27d82,餐饮服务;餐饮相关场所;餐饮相关, 
14,521,文华西路与龙腾街交叉口东100米,昌平区,110114,北京市,北京市,东北菜团子贴饼子,116.340728,40.075796,v#20170618#cfd89f7b25169fd893061e886188fd19,餐饮服务;餐饮相关场所;餐饮相关, 
15,526,宋庄焦刘路尚东庭西区2号,通州区,110112,北京市,北京市,回味大草原烤全羊,116.677504,39.9381,r#20170618#1d3d520a4b472ba2581f1145770e68c4,餐饮服务;餐饮相关场所;餐饮相关, 
16,594,幸福西街南50米,顺义区,110113,北京市,北京市,赵师傅馒头店,116.653465,40.133289,k#20170618#895ac724b02779b0d7018be3f5e4d385,餐饮服务;餐饮相关场所;餐饮相关, 
17,597,香园路10号附近,大兴区,110115,北京市,北京市,晨光烧饼(香园路),116.324822,39.772787,7#20170618#2d22610cbc0291c2c5f904eed9aa52fd,餐饮服务;餐饮相关场所;餐饮相关, 
18,608,前门大街布巷子8-3,东城区,110101,北京市,北京市,小煮茶圜传统文化体验馆,116.398422,39.895648,x#20170620#100e1106c1dcc2e2d1ebae96515be519,餐饮服务;餐饮相关场所;餐饮相关, 
19,622,中鼎路63号,大兴区,110115,北京市,北京市,尚鲜川菜,116.419919,39.734923,w#20170618#08b3b56d4051f91c08534568bad46d61,餐饮服务;餐饮相关场所;餐饮相关, 
20,641,天华西路天华园二里二区54栋一层,大兴区,110115,北京市,北京市,久久丫鸭颈王(天华西路),116.492232,39.800312,i#20170618#5e7fc391817256d613ed463d113fed9c,餐饮服务;餐饮相关场所;餐饮相关, 
21,647,北京站街22号(地铁2号线北京站B出口),东城区,110101,北京市,北京市,江南花园美食城,116.427839,39.905898,a#20170620#f34f82c1de4d87467e23f8e24dc96094,餐饮服务;餐饮相关场所;餐饮相关, 
22,675,旧头路与旧桥路交叉口西50米,大兴区,110115,北京市,北京市,驴肉火烧,116.455922,39.800742,z#20170618#4e3fe70a6e5c1e5f395a36325a2e7538,餐饮服务;餐饮相关场所;餐饮相关, 
23,676,天通苑东三区2号商业楼和顺美食城内(国泰百货底商),昌平区,110114,北京市,北京市,北一驴肉火烧(天通苑店),116.428692,40.075624,h#20170618#81b8151f0e672193743071182e5e2981,餐饮服务;餐饮相关场所;餐饮相关, 
24,705,育知东路北店嘉园西门斜南100米路西,昌平区,110114,北京市,北京市,锦州烧烤,116.338921,40.081599,7#20170618#1cfdff677ecfc5234d94ec20c262aa02,餐饮服务;餐饮相关场所;餐饮相关, 
25,720,旧忠路2号,大兴区,110115,北京市,北京市,鸡语鸭讲,116.45079,39.80587,9#20170618#bd3593506958a1e8a3cd0a6fd0508165,餐饮服务;餐饮相关场所;餐饮相关, 
26,749,集汇大街京东鑫顺源农贸市场大厅南侧,顺义区,110113,北京市,北京市,鹏程熟食凉菜,116.68246,40.107795,l#20170618#cba96862f691268a9d2bbdda00855f34,餐饮服务;餐饮相关场所;餐饮相关, 
27,788,马桥北街23号附近,通州区,110112,北京市,北京市,孔记汤包,116.557407,39.760675,s#20170618#acca9403012fe438214f67464da46844,餐饮服务;餐饮相关场所;餐饮相关, 
28,796,经济技术开发区康定街18号11号楼,大兴区,110115,北京市,北京市,老潼关肉夹馍(同济南路),116.537162,39.771276,g#20170618#bcabc691c24a7d78b0a94e6a12bad7aa,餐饮服务;餐饮相关场所;餐饮相关, 
29,841,张村路与柴房路交叉口东100米,通州区,110112,北京市,北京市,山东高庄特色馒头房,116.551845,39.725474,r#20170618#4226c8b06a3d7e94b562c63f71b91d9a,餐饮服务;餐饮相关场所;餐饮相关, 
30,852,新华街五里东区4号楼底商,丰台区,110106,北京市,北京市,刘记酱肉(新华街),116.290547,39.843432,n#20170618#40d4646d004b55eb69377bace0b8b366,餐饮服务;餐饮相关场所;餐饮相关, 
31,863,玉桥中路138号附近,通州区,110112,北京市,北京市,彭记卤三国,116.685702,39.884527,r#20170618#981619511dd91bffa3acbfdcb1ea91d0,餐饮服务;餐饮相关场所;餐饮相关, 
32,864,嘉创二路与科创六街交叉口东50米,通州区,110112,北京市,北京市,皖含早点,116.557333,39.809335,b#20170618#92490737342192c045862bdc2697915a,餐饮服务;餐饮相关场所;餐饮相关, 
33,889,永乐西小区3号楼南侧办公楼,石景山区,110107,北京市,北京市,家之味社区食堂,116.225067,39.903501,e#20170618#8154da800d4088e8103cb5d0e9847f74,餐饮服务;餐饮相关场所;餐饮相关, 
34,895,云景东路与群芳中一街交叉口东北100米,通州区,110112,北京市,北京市,天津食品二厂熟食店,116.663896,39.871153,a#20170618#6e7003c8b73879f6e6cdddeb9f002e61,餐饮服务;餐饮相关场所;餐饮相关, 
35,905,西关大街106号附近,通州区,110112,北京市,北京市,黑老宋,116.641751,39.904339,u#20170618#5f6eb016fb3248745a7606de8b25ff00,餐饮服务;餐饮相关场所;餐饮相关, 
36,912,海关大街南一巷15号(法院往西三百米),平谷区,110117,北京市,北京市,包子烧饼,117.092977,40.139671,f#20170618#5ca382472615da0732527c913eaf2364,餐饮服务;餐饮相关场所;餐饮相关, 
37,960,罗府家园3一14号长虹大街佳乐网吧对面底商,房山区,110111,北京市,北京市,还记得烧饼夹肘子(南关西路店),116.140609,39.72625,c#20170618#d3d261adaa75e45ddeb12a8533ccf986,餐饮服务;餐饮相关场所;餐饮相关, 
38,966,海户西里2号楼01层7号,丰台区,110106,北京市,北京市,羊杂羊汤,116.387959,39.856581,m#20170618#06dd71132d08bf9fb66207b7c851dafe,餐饮服务;餐饮相关场所;餐饮相关, 
39,969,中滩路东小口镇中滩路公园两栋1号楼北侧104号底商,昌平区,110114,北京市,北京市,MK鸭货(公园两栋店),116.412487,40.060776,o#20170618#330d42d36810c38ee069be577f5abf29,餐饮服务;餐饮相关场所;餐饮相关, 
40,973,潞城镇东堡村662号,通州区,110112,北京市,北京市,耿记烧烤(京杭源店),116.764823,39.895057,v#20170621#4c69b50d521271095499755f156e750d,餐饮服务;餐饮相关场所;餐饮相关, 
41,1019,永顺潞苑南大街1093号老城一锅底商,通州区,110112,北京市,北京市,台湾大鸡排,116.671616,39.928622,3#20170618#4dbef26246dc630c95a8321dcf8711d4,餐饮服务;餐饮相关场所;餐饮相关, 
42,1036,右安门街道永外大街12号北京南站北进口F1层,丰台区,110106,北京市,北京市,皇家鸡排(北京南站店),116.377586,39.865633,s#20170618#0a4b53b0a253a56fbb0e4d165a7baa81,餐饮服务;餐饮相关场所;餐饮相关, 
43,1088,金顶西街金安桥336车站东侧毛线专营旁原美廉美对面,石景山区,110107,北京市,北京市,凉皮先生久久鸭,116.160891,39.927251,i#20170618#4b070a34f0e3f0fb64faad9fedb844d7,餐饮服务;餐饮相关场所;餐饮相关, 
44,1108,南苑东高地菜市场,丰台区,110106,北京市,北京市,夫妻肺片(东高地分店),116.421384,39.805199,s#20170621#5607e22d6d39ba1f821fccfce06b278e,餐饮服务;餐饮相关场所;餐饮相关, 
45,1124,广茂大街泰中花园路东市场内50米,大兴区,110115,北京市,北京市,张姐烤肉拌饭脆皮鸡饭,116.3478,39.76119,t#20170618#0ea005d6a49c5933c358ace7a0be15d2,餐饮服务;餐饮相关场所;餐饮相关, 
46,1168,上庄路与永大路交叉口东北150米,海淀区,110108,北京市,北京市,私家聚点香锅串吧,116.219042,40.074294,d#20170618#2dbf87cfc40e77b8ce4f9f0d156bdfa1,餐饮服务;餐饮相关场所;餐饮相关, 
47,1174,旧宫镇旧忠路多乐多超市门口底商,大兴区,110115,北京市,北京市,谷子帝杂粮煎饼(旧宫旧忠路店),116.451046,39.802977,w#20170618#dd2ef3fc4aa7e31260732d263caf2178,餐饮服务;餐饮相关场所;餐饮相关, 
48,1195,中陈路与立军路交叉口东南50米,昌平区,110114,北京市,北京市,正宗大厂牛羊肉,116.405212,40.047289,s#20170618#0af93d9a08e9e92b66d82e0952832287,餐饮服务;餐饮相关场所;餐饮相关, 
49,1201,宏康路(近地铁公园),大兴区,110115,北京市,北京市,金手勺西红门店,116.342937,39.7816,z#20170621#f95c9762f57ee695d40f04e380a06b38,餐饮服务;餐饮相关场所;餐饮相关, 
50,1206,广渠门内大街90-8号地下一层西半侧,东城区,110101,北京市,北京市,张子烧烤(老红桥海鲜美食广场),116.421301,39.892825,b#20170620#97f93dbc5c78b5a2f087581f1ae5eae1,餐饮服务;餐饮相关场所;餐饮相关, 
51,1270,弘大路3号院,昌平区,110114,北京市,北京市,咱姥家大锅台饭店,116.229266,40.232776,3#20170618#017de5b33f4e7184290b22e81224f3fb,餐饮服务;餐饮相关场所;餐饮相关, 
52,1322,玉蜓桥物美大卖场2层,丰台区,110106,北京市,北京市,周黑鸭(北京方庄物美玉蜓桥店),116.423087,39.866229,f#20170618#8032472bb84bd18af08148e46fa8ccd6,餐饮服务;餐饮相关场所;餐饮相关, 
53,1337,羊坊店东路5号南侧(军事博物馆南侧),海淀区,110108,北京市,北京市,武汉久久鸭(羊坊店东路),116.324576,39.903414,0#20170618#4147aaf645282bda9d2578c5fb3822f8,餐饮服务;餐饮相关场所;餐饮相关, 
54,1342,角门路14号院15号楼底商,丰台区,110106,北京市,北京市,周记黑鸭(马家堡店),116.377178,39.840001,n#20170618#17aa498fa1889720e7cd3de820a0e5f6,餐饮服务;餐饮相关场所;餐饮相关, 
55,1363,科创九街3号附近,通州区,110112,北京市,北京市,铁板烧鱿鱼江湖,116.564759,39.797807,k#20170618#651511359eb360b5463f94dab6ab8465,餐饮服务;餐饮相关场所;餐饮相关, 
56,1371,银河南街2号院3号楼4层505室,石景山区,110107,北京市,北京市,北京皓美花店,116.2219,39.903357,c#20170618#6b9771936d5fa8f35e9e44986b8a06d9,餐饮服务;餐饮相关场所;餐饮相关, 
57,1373,黄寺大街甲23-3号附近,西城区,110102,北京市,北京市,F3茶楼茶艺用品,116.385043,39.967258,p#20170620#cfa0afe29c9a070a15276a83746ba1c8,餐饮服务;餐饮相关场所;餐饮相关, 
58,1413,万丰路68号和谐广场6层601号,丰台区,110106,北京市,北京市,锦山阿里郎烤肉城(万丰路店),116.29812,39.88159,a#20170618#c7edd03bc61b660ee32406548a743869,餐饮服务;餐饮相关场所;餐饮相关, 
59,1428,余庆路7号附近,大兴区,110115,北京市,北京市,香丫鸭,116.37681,39.776744,w#20170618#43889655795f3e50b4e233a6bc4e271f,餐饮服务;餐饮相关场所;餐饮相关, 
60,1434,志新东路8号苇子坑(平房)1号,海淀区,110108,北京市,北京市,雪儿烤翅(志新路店),116.369544,39.991238,3#20170618#cd1d0d9b47d965f7df757b48268ac7c3,餐饮服务;餐饮相关场所;餐饮相关, 
61,1436,阜成路22-12号,海淀区,110108,北京市,北京市,优多客汉堡炸鸡,116.307601,39.923698,o#20170618#010225465737168b1a0dcf02e4eaf3ce,餐饮服务;餐饮相关场所;餐饮相关, 
62,1444,湖光小区甲8号,怀柔区,110116,北京市,北京市,周黑鸭(北斜街),116.63269,40.330119,l#20170618#852a818c5810ae9a511f1b44db265fd2,餐饮服务;餐饮相关场所;餐饮相关, 
63,1448,横七条与顺五条交叉口西北50米,丰台区,110106,北京市,北京市,大姐熟食店,116.423595,39.853064,e#20170618#17f8c264a0db2cad2e4e49bc25ea6706,餐饮服务;餐饮相关场所;餐饮相关, 
64,1473,太平桥路46-4号,丰台区,110106,北京市,北京市,杂粮煎饼(太平桥路),116.31785,39.883083,e#20170618#dfcbf9953698b25d848a7df38b19e09b,餐饮服务;餐饮相关场所;餐饮相关, 
65,1501,七星东街与鲁谷南路交叉口西南50米,石景山区,110107,北京市,北京市,台湾周记金丝肉松饼,116.216001,39.899487,y#20170618#b2688cdc72fa929057342d05b429c4a9,餐饮服务;餐饮相关场所;餐饮相关, 
66,1523,潞城镇三元村农贸市场上海华联超市入口,通州区,110112,北京市,北京市,久久鸭(三元村店),116.698176,39.912906,0#20170618#8d94beee6c6079220670b6cf68415915,餐饮服务;餐饮相关场所;餐饮相关, 
67,1637,北下关街道高梁桥斜街120号长河湾小区2号楼9单元14层,海淀区,110108,北京市,北京市,大爱烘焙DIY课堂,116.350016,39.943548,0#20170618#62320e297168c10a783368cdcb5548a8,餐饮服务;餐饮相关场所;餐饮相关, 
68,1738,海子角东街51号附近,大兴区,110115,北京市,北京市,辉鑫炸鸡店,116.352755,39.718274,l#20170621#4e2b0b9a4365cbc0656a6d146f4ea382,餐饮服务;餐饮相关场所;餐饮相关, 
69,1778,先进村东街8号附近,顺义区,110113,北京市,北京市,正宗老北京烧饼,116.661048,40.216911,y#20170618#c9082cb94c11bf154a0066d090a579e0,餐饮服务;餐饮相关场所;餐饮相关, 
70,1834,芳城园一区3号楼底商,丰台区,110106,北京市,北京市,程记美式炸鸡,116.437058,39.869528,w#20170618#07eb1350eeacac212ea3bea8c4ef8106,餐饮服务;餐饮相关场所;餐饮相关, 
71,1934,昊天大街与良常路交叉口南150米,房山区,110111,北京市,北京市,聚味美,116.146272,39.72519,s#20170618#cab828707b95634e9817c5450fb9205f,餐饮服务;餐饮相关场所;餐饮相关, 
72,1965,兴丰大街三段215号,大兴区,110115,北京市,北京市,老莫西饼(力加店),116.339483,39.724467,8#20170616#e4d2ab17380fe7cdb10bbd9ca5c3bfda,餐饮服务;餐饮相关场所;餐饮相关, 
73,1987,彰化路曙光花园7幢(中国工商银行对面),海淀区,110108,北京市,北京市,果香四溢(彰化路店),116.289899,39.942424,2#20170618#1312f8c551890e32e931595819b92176,餐饮服务;餐饮相关场所;餐饮相关, 
74,2039,富强西路与富强路交叉口东南50米,大兴区,110115,北京市,北京市,老北京果木烤鸭,116.33297,39.73725,p#20170618#279f553ed642f8b9267336f333c7e6fe,餐饮服务;餐饮相关场所;餐饮相关, 
75,2097,城关街道南关村兴房大街甲22号院内6号房山第一医院后门,房山区,110111,北京市,北京市,杭州瘦肉小笼包(南沿里社区西),115.990251,39.695294,g#20170618#2b45bddaf6c1abc5a36964963b21c312,餐饮服务;餐饮相关场所;餐饮相关, 
76,2124,吴家村路2号院兆丰馨园南门,丰台区,110106,北京市,北京市,东哥鱼馆,116.24672,39.88983,7#20170618#78d7e2561d158f7a237063d0aaad171c,餐饮服务;餐饮相关场所;餐饮相关, 
77,2222,西单北大街109号西单婚庆大楼f4层,西城区,110102,北京市,北京市,翠明轩,116.372816,39.914243,x#20170617#cebdb1d8dcbc32cc8946b4bf68c7976f,餐饮服务;餐饮相关场所;餐饮相关, 
78,2325,物资学院路15号,通州区,110112,北京市,北京市,热辣1号,116.63926,39.92483,o#20170618#0c96f031da30bfdd683761b9bad8e228,餐饮服务;餐饮相关场所;餐饮相关, 
79,2333,怀柔镇南关村南华园二区71号,怀柔区,110116,北京市,北京市,爆脾气功夫鸡排,116.633299,40.309808,g#20170618#11f1ece17873b3e49441ca7e76c37882,餐饮服务;餐饮相关场所;餐饮相关, 
80,2338,西长安街街道西单北大街109号(婚庆珠宝大厦7层),西城区,110102,北京市,北京市,虾吃虾漱西单店,116.373019,39.914197,m#20170617#0a7ad55b8a8d3d03784e955b1326d02e,餐饮服务;餐饮相关场所;餐饮相关, 
81,2397,大力胡同11号,西城区,110102,北京市,北京市,连胜超市饮品吧,116.393807,39.893717,6#20170617#5313df3dd34c277299280cb8b02cc8e3,餐饮服务;餐饮相关场所;餐饮相关, 
82,2438,教堂后街6号,大兴区,110115,北京市,北京市,金手勺,116.314213,39.498115,m#20170618#cb8cea804cf08704c3abcbd2efb3dd59,餐饮服务;餐饮相关场所;餐饮相关, 
83,2483,板井路69号(世纪金源大饭店)地下一、二层F12商铺,海淀区,110108,北京市,北京市,孙大大甲鱼馆(金源店),116.280012,39.952748,y#20170618#c14b189510f38112cbf12db309bb0a4f,餐饮服务;餐饮相关场所;餐饮相关, 
84,2519,青春路甲45号,怀柔区,110116,北京市,北京市,摸错门,116.629105,40.331483,n#20170621#f14c00a07c45ec25a841dccf353e095f,餐饮服务;餐饮相关场所;餐饮相关, 
85,2619,大葛庄村139号,通州区,110112,北京市,北京市,邯郸羊汤烧饼板面,116.5572,39.761513,v#20170618#49e16440c9bc299076f6a302505972e7,餐饮服务;餐饮相关场所;餐饮相关, 
86,2629,石景山路乙18号院万达广场C座1301室(招商银行对面),石景山区,110107,北京市,北京市,零点DIY烘焙(万达店),116.224685,39.905828,6#20170616#cc9d8cd3a2c2ba9c4535b79a56f245ca,餐饮服务;餐饮相关场所;餐饮相关, 
87,2655,民大西路58号民族大学西门北,海淀区,110108,北京市,北京市,久久丫(民族大学店),116.317194,39.952003,2#20170618#0a4cea83e45420e6d2ba844451cef9ae,餐饮服务;餐饮相关场所;餐饮相关, 
88,2658,景园北街2号院68号底商,大兴区,110115,北京市,北京市,魏记肉饼,116.519862,39.777299,0#20170618#0b6a052058b9dca6ce7b33a1b7b13dd0,餐饮服务;餐饮相关场所;餐饮相关, 
89,2699,次渠南里农贸市场玉江佳园21号楼底商,通州区,110112,北京市,北京市,马记骏英福缘食品店,116.579498,39.799569,z#20170618#440483ca8950b3775c7506082674e00a,餐饮服务;餐饮相关场所;餐饮相关, 
90,2713,经济技术开发区鹿海园四里北门西侧,大兴区,110115,北京市,北京市,烧烤大作战,116.503691,39.759728,p#20170618#1844abef60850386cb7a3f386e14e642,餐饮服务;餐饮相关场所;餐饮相关, 
91,2840,丽园路30-16,大兴区,110115,北京市,北京市,深州烧鸡(丽园路),116.319712,39.749819,h#20170618#ff9eb8c168769c4fa089c06c3b4867d0,餐饮服务;餐饮相关场所;餐饮相关, 
92,2841,南苑民俗旅游文化街内200米(原金丽轩韩式自助烤涮城),丰台区,110106,北京市,北京市,金牛头自助烤涮城,116.377677,39.793659,d#20170618#e4c9c53f7f743d0b151a5e3dffb9a60c,餐饮服务;餐饮相关场所;餐饮相关, 
93,2962,东华门街道王府井大街-172号丹耀大厦-6楼,东城区,110101,北京市,北京市,金菩提,116.411723,39.912576,h#20170616#d65763487aa22e30773818ba52a2d34c,餐饮服务;餐饮相关场所;餐饮相关, 
94,2978,马驹桥镇四支路鑫源彩钢-钢构向东50米,通州区,110112,北京市,北京市,麦味香馒头房,116.575134,39.76943,8#20170621#1c5bce090e31bc653e0377cc6212581c,餐饮服务;餐饮相关场所;餐饮相关, 
95,3002,西马场路6号院1号(无名缘米粉向西20米路南),丰台区,110106,北京市,北京市,德州扒鸡(西马场店),116.379252,39.840593,m#20170618#63a7a72a3de2836bb41d6dcb3ba335e1,餐饮服务;餐饮相关场所;餐饮相关, 
96,3018,月坛南街12号,西城区,110102,北京市,北京市,诺馨蛋糕店(银岛店),116.347296,39.913839,v#20170616#45955a9cf22cc12c5d890c8c7bcde12b,餐饮服务;餐饮相关场所;餐饮相关, 
97,3129,花园北路甲12号火星龙翔商品批发市场D区3号,海淀区,110108,北京市,北京市,京嘴儿炸鸡煎饼懒龙,116.379294,39.981559,g#20170616#8be6f5100b42b3f720c1c3a30c4c0276,餐饮服务;餐饮相关场所;餐饮相关, 
98,3207,阜成路26号(航天桥西100米路南),海淀区,110108,北京市,北京市,一手店(航天桥店),116.30596,39.923637,x#20170618#cd276515302ceb178756ec93fd232923,餐饮服务;餐饮相关场所;餐饮相关, 
99,3238,大灰厂路与福宫路交叉口东南150米,丰台区,110106,北京市,北京市,特色煎饼,116.156317,39.808691,x#20170618#d6292641476d05f82444b6444e85ce0e,餐饮服务;餐饮相关场所;餐饮相关, 
100,3247,经济技术开发区康定街18号2号楼31A,通州区,110112,北京市,北京市,香河肉饼(周营店),116.55664,39.72618,2#20170618#f6e691cbbc74a53724d1a289106f39ac,餐饮服务;餐饮相关场所;餐饮相关, 
101,3304,上庄大街附近,石景山区,110107,北京市,北京市,徽煜斋,116.23573,39.90998,m#20170618#6f301daa6a4a53febd728122c86b0714,餐饮服务;餐饮相关场所;餐饮相关, 
102,3313,天通苑天通尾货1楼底商,昌平区,110114,北京市,北京市,真想吃鸭,116.40942,40.074682,p#20170618#cda686a03f3018a863070c935fe7f3e6,餐饮服务;餐饮相关场所;餐饮相关, 
103,3432,潞苑南大街240号,通州区,110112,北京市,北京市,武汉久久鸭(龙旺庄路),116.689654,39.930923,8#20170616#1aff0a16e2e6de05355dd5a379a923f9,餐饮服务;餐饮相关场所;餐饮相关, 
104,3600,兴贸一街与马驹桥中学路交叉口南150米,通州区,110112,北京市,北京市,吊炉烧饼,116.556901,39.762466,1#20170618#24782f7af761ecfdbcd9ae84801bb6cb,餐饮服务;餐饮相关场所;餐饮相关, 
105,3612,芳星园一区方庄市场1层,丰台区,110106,北京市,北京市,稻香春专柜,116.432205,39.861923,0#20170618#2ff59ba3d68f0ee65be720ca6e0f491d,餐饮服务;餐饮相关场所;餐饮相关, 
106,3617,西马场甲14号院集美家居5厅,丰台区,110106,北京市,北京市,韩国料理(集美美食城),116.393134,39.834383,x#20170618#81ff680fcb266ec72b8c90b979e7daff,餐饮服务;餐饮相关场所;餐饮相关, 
107,3665,马驹桥商业街百分百购物中心对面,通州区,110112,北京市,北京市,斯味可雪花冰冰淇淋,116.553648,39.761651,y#20170618#47e53dccd2a020e246e58fc3f3658134,餐饮服务;餐饮相关场所;餐饮相关, 
108,3701,富强路与老街交叉口西北50米,大兴区,110115,北京市,北京市,周黑鸭(富强路),116.34189,39.737799,a#20170618#821bec8296d3cf735622b70744c9a934,餐饮服务;餐饮相关场所;餐饮相关, 
109,3707,西罗园,丰台区,110106,北京市,北京市,德州扒鸡(洋桥分店),116.383722,39.860778,9#20170616#4f5bab382a484751781fbbfe751a4d16,餐饮服务;餐饮相关场所;餐饮相关, 
110,3738,六里桥莲怡园东路风荷曲苑小区4号,丰台区,110106,北京市,北京市,邢氏海参馆(北京六里桥店),116.30238,39.88394,l#20170618#afbad1673ecfb12e4073c224870754f0,餐饮服务;餐饮相关场所;餐饮相关, 
111,3779,东花市街道广渠门内东花市南里市场华联超市内,东城区,110101,北京市,北京市,稻香村专柜,116.438416,39.894011,k#20170617#cb049cddae230dcb91c853c79c6502cd,餐饮服务;餐饮相关场所;餐饮相关, 
112,3815,花乡南四环西路188号总部基地17区,丰台区,110106,北京市,北京市,大咖美食城,116.29186,39.823887,9#20170618#52f84aa6fb8d3ffbb6a114648e1049ad,餐饮服务;餐饮相关场所;餐饮相关, 
113,3821,南半壁店小区路134号附近,顺义区,110113,北京市,北京市,商店批发雪糕冷饮,116.628803,40.02708,n#20170618#90bfc19b97d80ec61b792279ad0361e0,餐饮服务;餐饮相关场所;餐饮相关, 
114,3831,北洼路1区10号平房,海淀区,110108,北京市,北京市,三千尚品包子(紫竹院路),116.30517,39.944377,o#20170618#cb5b44540c9f3ab7eff5f1986aa0ed90,餐饮服务;餐饮相关场所;餐饮相关, 
115,3836,顺市街与鼓楼西街交叉口北50米,昌平区,110114,北京市,北京市,久久鸭(牛犄角胡同),116.231528,40.224625,9#20170618#c24129e37942376fd71df581fdb66d20,餐饮服务;餐饮相关场所;餐饮相关, 
116,3853,燕山迎风四里34号楼边,房山区,110111,北京市,北京市,周家菜馆,115.960607,39.723803,t#20170618#4936198da73eb27f0bf675a855bb9994,餐饮服务;餐饮相关场所;餐饮相关, 
117,3884,西红门镇金星庄黄亦路红绿灯东行200米路北，近九天夜舞东行5米,大兴区,110115,北京市,北京市,海鲜烧烤第六烤场(金华园店),116.385282,39.764635,9#20170618#0d886016cd1e63913aa69d642f0d0c72,餐饮服务;餐饮相关场所;餐饮相关, 
118,3890,西红门黄亦路双程苑宾馆旁,大兴区,110115,北京市,北京市,精武鸭颈,116.378903,39.764254,0#20170618#cab2eb0abe9c1806e5b1b89f75e5050e,餐饮服务;餐饮相关场所;餐饮相关, 
119,3941,琉璃井路7号,东城区,110101,北京市,北京市,招牌卤肉,116.410121,39.866487,8#20170617#47efcaf1a79e04ce2fa1ca13a7c271a1,餐饮服务;餐饮相关场所;餐饮相关, 
120,4009,四惠东地铁站康家沟路145号,朝阳区,110105,北京市,北京市,烤蹄大侠,116.517263,39.909277,x#20170617#671fd1c6971438f78d71c47fe65a14bf,餐饮服务;餐饮相关场所;餐饮相关, 
121,4057,西花市大街118号旁(地铁5号线C出口旁),东城区,110101,北京市,北京市,京八珍(西花市店),116.421459,39.897057,y#20170617#ff86b1b9b072bc559e7704a88fc855db,餐饮服务;餐饮相关场所;餐饮相关, 
122,4152,知春路49号希格玛公寓东门近翠宫饭店,海淀区,110108,北京市,北京市,哈哈镜鸭脖子(希格玛店),116.336874,39.977195,0#20170618#2605bc996dfb81e0d71afd7ecae8d3e2,餐饮服务;餐饮相关场所;餐饮相关, 
123,4203,永顺镇物资学院路55号,通州区,110112,北京市,北京市,牛魔王,116.639461,39.923146,4#20170618#45f5dc5fdc6a3ddc82ee1447a40dc49c,餐饮服务;餐饮相关场所;餐饮相关, 
124,4364,宏业路258号附近,大兴区,110115,北京市,北京市,山东呛面馒头(宏业路),116.3322,39.784615,h#20170618#5288350b2fae4c38079b8f70cc5fe9ec,餐饮服务;餐饮相关场所;餐饮相关, 
125,4410,周口店路与长周路交叉口东北100米,丰台区,110106,北京市,北京市,同顺源老北京烧饼,116.208503,39.815863,b#20170618#aab9a9d014c862662b13bf4d03a7d663,餐饮服务;餐饮相关场所;餐饮相关, 
126,4433,良乡昊天大街邮政局对面26,房山区,110111,北京市,北京市,蒸香包(昊天大街店),116.150127,39.739714,d#20170621#de882aa729e588574f98ba5dcbc58dae,餐饮服务;餐饮相关场所;餐饮相关, 
127,4439,北清路北50米,昌平区,110114,北京市,北京市,山西主食厨房(北清路),116.415653,40.104604,1#20170618#19434c9058401c6c955f238d304aff9c,餐饮服务;餐饮相关场所;餐饮相关, 
128,4477,大鹁鸽胡同与灯市口北巷交叉口东北50米,东城区,110101,北京市,北京市,一品正港年糕炸鸡汉堡(王府井店),116.41356,39.920556,j#20170617#d61df39f00481a693b3a7cf6f8a63015,餐饮服务;餐饮相关场所;餐饮相关, 
129,4512,长阳镇天泰新景温泉家园18号楼1至2层01,房山区,110111,北京市,北京市,华冠(100店),116.220817,39.775247,7#20170618#08f446664a5f3ccea56ef23e978b63c6,餐饮服务;餐饮相关场所;餐饮相关, 
130,4536,房易路附近,房山区,110111,北京市,北京市,三旦水产熟食,115.896989,39.57185,j#20170618#319ca440eb9a0feb9aee6504d685065c,餐饮服务;餐饮相关场所;餐饮相关, 
131,4544,古北口镇司马台新村沙岭25-2号,密云区,110118,北京市,北京市,洋洋得意餐饮,117.245382,40.656617,z#20170618#81e6c7381df18712ff2fed482d835c22,餐饮服务;餐饮相关场所;餐饮相关, 
132,4611,长楹天街商业街西区C318,朝阳区,110105,北京市,北京市,kao!烤肉饭(天街店),116.595999,39.924244,b#20170617#69f6f5e7e72e8903460c73b520b9b03f,餐饮服务;餐饮相关场所;餐饮相关, 
133,4619,青春路一院十号楼九门市,怀柔区,110116,北京市,北京市,一期一会,116.632721,40.313546,8#20170621#c748bc7f537aba12ecf2d5f5217fdbec,餐饮服务;餐饮相关场所;餐饮相关, 
134,4640,新街口北大街与板桥三条交叉口东南50米,西城区,110102,北京市,北京市,味佳盐酥鸡大鸡排,116.372353,39.947014,0#20170617#86cd666c675a0da1a4e838243c621f52,餐饮服务;餐饮相关场所;餐饮相关, 
135,4679,王府井大街301-1号京新旅大厦底商(深海800米海鲜自助),东城区,110101,北京市,北京市,友情进口葡萄酒直售,116.4104,39.90986,5#20170620#c07186de33352a95380deea166dbebd0,餐饮服务;餐饮相关场所;餐饮相关, 
136,4683,崇文门外大街地铁五号线C口往前50米108公交车站旁边,东城区,110101,北京市,北京市,老北京包子铺(刘记崇文门店),116.418964,39.900062,i#20170617#1707e419e83fb786af7a9e1c0183d57f,餐饮服务;餐饮相关场所;餐饮相关, 
137,4739,成寿寺新业广场二层,丰台区,110106,北京市,北京市,泰芒了(新业广场店),116.44702,39.857329,d#20170618#36fffe38659eb44f4f3339f864a39d0d,餐饮服务;餐饮相关场所;餐饮相关, 
138,4740,韩庄子西里,丰台区,110106,北京市,北京市,左麻又辣,116.289931,39.839539,8#20170618#e93e906e2cf16deddf1f837e92d9598e,餐饮服务;餐饮相关场所;餐饮相关, 
139,4822,饶乐府村商业街264号附近,房山区,110111,北京市,北京市,主食厨房(饶乐府村商业街),116.002992,39.701533,a#20170618#43172b73d5ddbd5830a765bb929f7ecd,餐饮服务;餐饮相关场所;餐饮相关, 
140,4841,沙河镇顺沙路19号院二区底商2-3号,昌平区,110114,北京市,北京市,纽罗宾蛋糕面包,116.278474,40.144478,e#20170621#a8339eaa429d9bc895a7ccd845236677,餐饮服务;餐饮相关场所;餐饮相关, 
141,4880,科学院南路2号融科资讯中心B座一层106,海淀区,110108,北京市,北京市,FreshTailor鲜知生活馆,116.32652,39.984819,u#20170621#3a6800035be2c19eb0886173f4b576e3,餐饮服务;餐饮相关场所;餐饮相关, 
142,4899,北七家镇定泗路宏福院小区,昌平区,110114,北京市,北京市,德口福包子(郑各庄新村东),116.36431,40.115848,q#20170618#e415b4faf9fdf484fc6d60577a4b0a83,餐饮服务;餐饮相关场所;餐饮相关, 
143,4914,陶然亭路12号楼京都瑞成大厦2层,西城区,110102,北京市,北京市,法兰之吻甜点,116.37766,39.87857,n#20170617#4693fb0e88d33b9d13219d4236e2602c,餐饮服务;餐饮相关场所;餐饮相关, 
144,4948,旧京承路与902县道交叉口东南100米,密云区,110118,北京市,北京市,孙记福乐天老北京烧饼店,116.821656,40.367639,9#20170618#9ab94779ad3fd135cdba846e1c248ef0,餐饮服务;餐饮相关场所;餐饮相关, 
145,4949,欣宁街原理想城售楼处西红门地铁4号线B1出口处,大兴区,110115,北京市,北京市,味多美,116.345964,39.795854,p#20170618#2219ff472d96eb1babbc9d8fb1ff74b2,餐饮服务;餐饮相关场所;餐饮相关, 
146,4970,小堡北街与徐宋路交叉口西北50米,通州区,110112,北京市,北京市,小月姐卤味磨爪,116.721262,39.95045,c#20170618#3e60657bd4ec3907739420ff5fcdeba0,餐饮服务;餐饮相关场所;餐饮相关, 
147,5013,长阳镇广阳大街绿地缤纷城购物中心3层,房山区,110111,北京市,北京市,卤侠客(绿地缤纷城店),116.160719,39.756787,u#20170618#3f13324db2f6fc590a863aba7fce9911,餐饮服务;餐饮相关场所;餐饮相关, 
148,5028,美然绿色家园,大兴区,110115,北京市,北京市,山东主食厨房(旧忠路),116.451144,39.802381,7#20170618#7311bcfab5c32fce38bfd77b599a67df,餐饮服务;餐饮相关场所;餐饮相关, 
149,5061,凤福街与温泉街交叉口东南50米,大兴区,110115,北京市,北京市,北京天地情缘餐厅,116.69378,39.614655,y#20170621#c45a1bb5efc83f05272d8fa6a67cdc1f,餐饮服务;餐饮相关场所;餐饮相关, 
150,5064,怀柔镇下元村53号,怀柔区,110116,北京市,北京市,北京好味悠长小吃店(下元一条店),116.642195,40.3189,z#20170618#a3d5a2c026116c5e4318f362e7b398f4,餐饮服务;餐饮相关场所;餐饮相关, 
151,5093,良乡拱辰南大街金花商业大厦1楼04号,房山区,110111,北京市,北京市,川乐小镇(金华商业大厦店),116.142369,39.73215,7#20170618#44cf47ef55c60c0e5f236193279a11f7,餐饮服务;餐饮相关场所;餐饮相关, 
152,5109,小汤山大柳树环岛北800米东御汤山别墅区东门内(九华山庄西门对面),昌平区,110114,北京市,北京市,御香宫,116.405777,40.18442,7#20170618#c6441db64585b2c2cf38cafaf105c9b5,餐饮服务;餐饮相关场所;餐饮相关, 
153,5136,京榆旧线与潞苑南大街交叉口北50米,通州区,110112,北京市,北京市,自酿啤酒,116.672189,39.928968,c#20170621#f750fb8a29803134ca9566af764d3145,餐饮服务;餐饮相关场所;餐饮相关, 
154,5143,香园路香海园57号楼1层57-2号,大兴区,110115,北京市,北京市,57号烤肉(香园路店),116.32141,39.773463,r#20170618#be4ba0a42d36d45312a35190c65f0abd,餐饮服务;餐饮相关场所;餐饮相关, 
155,5197,鲁谷街道六合园底商12号,石景山区,110107,北京市,北京市,悠香卤味坊,116.217149,39.898537,i#20170618#5f0fab122830659cdd569b4616afe473,餐饮服务;餐饮相关场所;餐饮相关, 
156,5220,平行路与琉陶路交叉口东北50米,房山区,110111,北京市,北京市,兴礼会楠副食店,116.082796,39.596878,r#20170618#347cff0ea8ffc13d832cd58c0171dc1d,餐饮服务;餐饮相关场所;餐饮相关, 
157,5240,西三旗安宁北里8号泰山饭店1层,海淀区,110108,北京市,北京市,素虎(西三旗店),116.329137,40.049639,4#20170618#e8f32987254f98b2902b117d08858030,餐饮服务;餐饮相关场所;餐饮相关, 
158,5250,杨庄路63号院华联生活超市,通州区,110112,北京市,北京市,春女辣白菜(杨庄店),116.631794,39.902658,y#20170618#cb9a41aabb85cf7e63c11429a18a321d,餐饮服务;餐饮相关场所;餐饮相关, 
159,5301,广安门南街34号附近,西城区,110102,北京市,北京市,老鸭汤炒菜盖饭,116.350542,39.877983,h#20170617#4631f50abb0f1409fb8f6f90901bd6b4,餐饮服务;餐饮相关场所;餐饮相关, 
160,5321,辛屯街82号,通州区,110112,北京市,北京市,鲁提辖熟食铺,116.547685,39.757145,s#20170618#bdbf6785730542c56f42eaa679b806bd,餐饮服务;餐饮相关场所;餐饮相关, 
161,5371,西三路西100米,大兴区,110115,北京市,北京市,老北京脆皮烤鸭,116.411922,39.763168,b#20170618#e8c1ca1cf5efda7d52ec270a81909e69,餐饮服务;餐饮相关场所;餐饮相关, 
162,5405,西红门欣旺北大街宏大北园七号楼,大兴区,110115,北京市,北京市,月色江南,116.340534,39.799874,6#20170618#6fab5a3e14045ce7568e9d53d1b72d16,餐饮服务;餐饮相关场所;餐饮相关, 
163,5439,良乡镇长虹小区北门,房山区,110111,北京市,北京市,三生缘手抓饼(南关西路),116.138477,39.72635,x#20170618#6a897ac33b8e7f8373d2a724cb4042b6,餐饮服务;餐饮相关场所;餐饮相关, 
164,5529,李桥镇馨港庄园二区12楼(喜式蛋糕店后面),顺义区,110113,北京市,北京市,猫娜纯种猫咪会所,116.670272,40.033675,7#20170618#54cef163447db3d09a187350d1415fb3,餐饮服务;餐饮相关场所;餐饮相关, 
165,5563,马家堡西路公益西桥乐天玛特2层,丰台区,110106,北京市,北京市,久久丫(公益西桥店),116.368903,39.832874,j#20170618#2d41af3fe4760064ed60d2568faeffc3,餐饮服务;餐饮相关场所;餐饮相关, 
166,5599,宏福路鸿坤广场3层F3-01,大兴区,110115,北京市,北京市,全职奶奶,116.340178,39.790835,6#20170618#921e2c264fc985bc82ebe2f22aa36e93,餐饮服务;餐饮相关场所;餐饮相关, 
167,5632,回龙观镇龙腾苑五区14号楼1层2号-2,昌平区,110114,北京市,北京市,鹑(回龙观店),116.334859,40.074249,4#20170618#aa9138fca516445b04426436de3b761c,餐饮服务;餐饮相关场所;餐饮相关, 
168,5684,玉桥中路梨园东里2号(北京梨园东里农贸中心D区26号),通州区,110112,北京市,北京市,吕涛熟食店,116.685702,39.884527,0#20170618#ae0b3983102f1d56d543e26b7596a8b5,餐饮服务;餐饮相关场所;餐饮相关, 
169,5709,永大路北50米,海淀区,110108,北京市,北京市,第1佳大鸡排(永丰屯店),116.225509,40.07697,m#20170618#97dd0abbed45e3255ee7124f31ce9ec8,餐饮服务;餐饮相关场所;餐饮相关, 
170,5745,昌平镇东环路23-8号,昌平区,110114,北京市,北京市,晨光烧饼(昌平总店),116.239602,40.223502,e#20170618#c26700ca026b7a779000f4cb83715c23,餐饮服务;餐饮相关场所;餐饮相关, 
171,5763,树村路甲1号院,海淀区,110108,北京市,北京市,饺踏食地,116.300792,40.023077,7#20170618#6a8899b2509e35842cff73c2fa371393,餐饮服务;餐饮相关场所;餐饮相关, 
172,5792,窦店镇水墨林溪小区商业街底商27-1,房山区,110111,北京市,北京市,吉祥馄饨(水墨林溪店),116.066326,39.686847,9#20170618#d864bf0364c69ab6f2d781c436884b65,餐饮服务;餐饮相关场所;餐饮相关, 
173,5796,河南寨镇北金沟屯村平安街甲10号,密云区,110118,北京市,北京市,沙县小吃店,116.825307,40.32656,h#20170618#a6e91945be38df412246518901e43552,餐饮服务;餐饮相关场所;餐饮相关, 
174,5821,马驹桥镇东店村,通州区,110112,北京市,北京市,鹏程熟食,116.55852,39.755488,5#20170618#127c2e133fbca7775e8eb69a3d8b1fdb,餐饮服务;餐饮相关场所;餐饮相关, 
175,5829,太平桥西路70号附近,丰台区,110106,北京市,北京市,美妙食刻(太平桥西路),116.311515,39.881848,5#20170618#ae9bea7411bfac7718ed918dad4244e1,餐饮服务;餐饮相关场所;餐饮相关, 
176,5877,马连道南街(太平桥首航超市西侧),丰台区,110106,北京市,北京市,山东呛面馒头(西局东街),116.324653,39.876033,a#20170618#66e008657a376968ace1421042a7c180,餐饮服务;餐饮相关场所;餐饮相关, 
177,5881,仁和地区站前东街2号(顺欣春峰大卖场一层A区50号),顺义区,110113,北京市,北京市,好哥酸辣粉,116.656665,40.12582,x#20170618#3c0bb92e1e42a674738c55470dd1e399,餐饮服务;餐饮相关场所;餐饮相关, 
178,5916,海淀大街与彩和坊路交汇处,海淀区,110108,北京市,北京市,虎头军煎饼(中关村店),116.307904,39.982877,d#20170618#21e61a3142cb91e16d567e1ee64a164b,餐饮服务;餐饮相关场所;餐饮相关, 
179,5983, ,顺义区,110113,北京市,北京市,烩面馆,116.59997,40.040269,t#20170618#cb3092d02d3ffd71554e335bcda35d69,餐饮服务;餐饮相关场所;餐饮相关, 
180,5985,兴云路与果园中街交叉口东南100米,密云区,110118,北京市,北京市,天津正宗石磨煎饼,116.821674,40.371033,9#20170618#c68d839befcda7f846ff8abc38cd87c2,餐饮服务;餐饮相关场所;餐饮相关, 
181,5987,南三环中路与蒲黄榆路交叉口西150米,丰台区,110106,北京市,北京市,外婆红烧肉,116.420685,39.857647,n#20170618#76bffc189b0666a67d70452e4ba7560e,餐饮服务;餐饮相关场所;餐饮相关, 
182,5989,晓月中路西50米,丰台区,110106,北京市,北京市,土家酱香饼(晓月中路),116.238356,39.83778,j#20170618#20b9c4215b4ba483e79ff5c6a8fe8ed7,餐饮服务;餐饮相关场所;餐饮相关, 
183,5992,黄村南王立庄村北大众食府原湘雅阁,大兴区,110115,北京市,北京市,食为天老妈菜馆,116.352718,39.702676,p#20170618#70884bbee89f62bb03097019f2d168a0,餐饮服务;餐饮相关场所;餐饮相关, 
184,5998,新仓路与新华西街交叉口旁,通州区,110112,北京市,北京市,天津包子(新华西街),116.645764,39.906647,k#20170618#61cdcb0eb79d492a1ba05a641a9b980f,餐饮服务;餐饮相关场所;餐饮相关, 
185,6013,城关南路6-16号附近,房山区,110111,北京市,北京市,福记久久鸭凉菜,115.985435,39.694086,r#20170618#652b8647d1a44488a6a9a58ef2fc188a,餐饮服务;餐饮相关场所;餐饮相关, 
186,6020,良乡东路与黄良路交叉口北200米,房山区,110111,北京市,北京市,啤酒屋(特色烧烤),116.161813,39.732684,a#20170618#8db593712c11483736b541ffd5e0200a,餐饮服务;餐饮相关场所;餐饮相关, 
187,6091,鲁谷南路22-1号,石景山区,110107,北京市,北京市,手撕面包,116.216113,39.899444,t#20170618#dff880d1da8ebcfdce971a6167aea367,餐饮服务;餐饮相关场所;餐饮相关, 
188,6103,集汇大街8号附近,顺义区,110113,北京市,北京市,川景菜手工水区,116.66577,40.108148,6#20170618#90a0c27b66b666220425131ad38d316b,餐饮服务;餐饮相关场所;餐饮相关, 
189,6170,木北路66号杨镇三街公交站红绿灯北100米路东(盲人成才培训学校北侧),顺义区,110113,北京市,北京市,老北京美式炸鸡(杨镇店),116.822408,40.150892,7#20170618#2e7c8ae57c50f9886ce2c27e6e12a865,餐饮服务;餐饮相关场所;餐饮相关, 
190,6181,北七家镇东三旗回南路村委会对面19号,昌平区,110114,北京市,北京市,黄焖鸡米饭,116.409352,40.08553,2#20170618#ae03e142c1ddd2e6c9c2a79e58068a36,餐饮服务;餐饮相关场所;餐饮相关, 
191,6185,庞各庄镇西韩路梨花村第一烤肉店前行,大兴区,110115,北京市,北京市,三生三世自助烧烤,116.24613,39.586689,m#20170618#47cd4f2d7054ac0699ef7d9c72eff5d7,餐饮服务;餐饮相关场所;餐饮相关, 
192,6190,悦秀路通厦公元99号一层,海淀区,110108,北京市,北京市,91happy(安宁庄店),116.326367,40.049885,p#20170618#82218ae960872dff49d024180c1b72eb,餐饮服务;餐饮相关场所;餐饮相关, 
193,6198,西红门欣荣南大街星光旅馆西30米路北,大兴区,110115,北京市,北京市,小田周黑鸭,116.344377,39.783844,y#20170618#5ea92e5577402a0f5503fd0b01002bdf,餐饮服务;餐饮相关场所;餐饮相关, 
194,6233,崇文门外大街18号国瑞购物中心G层,东城区,110101,北京市,北京市,Tako章鱼小丸子(国瑞购物中心),116.419959,39.898442,g#20170620#5c0589d313b0d33a3e7f7b05a7aa2edf,餐饮服务;餐饮相关场所;餐饮相关, 
195,6240,建设部院内乙3号楼,海淀区,110108,北京市,北京市,建缘香兰州拉面,116.330256,39.930988,o#20170618#08ed93ee8f1b6b130110befa5501d803,餐饮服务;餐饮相关场所;餐饮相关, 
196,6258,北洼路28号,海淀区,110108,北京市,北京市,久久丫(北洼路店),116.304478,39.936881,p#20170618#ed27c3d7dd2ba6b15d5512ea5f0d03d8,餐饮服务;餐饮相关场所;餐饮相关, 
197,6329,增产路7号,门头沟区,110109,北京市,北京市,双缘熟食专卖店(增产路),116.095382,39.941787,4#20170618#d05757d8baf81b00664071c58e260092,餐饮服务;餐饮相关场所;餐饮相关, 
198,6336,张村路与柴房路交叉口东100米,通州区,110112,北京市,北京市,辣之源美食,116.55156,39.725478,q#20170621#f5cf54efc24ab00f23cae03bb371559e,餐饮服务;餐饮相关场所;餐饮相关, 
199,6370,小张湾工业东路与张村路交叉口东100米,通州区,110112,北京市,北京市,薄饼卷肉,116.555583,39.726089,2#20170621#414b7fff5b16600939b1a3e89e7665ad,餐饮服务;餐饮相关场所;餐饮相关, 
200,6389,北三环中路马甸桥商房大厦地下二层商房大食堂,西城区,110102,北京市,北京市,小碗菜店,116.385037,39.968684,4#20170620#6f3fa65e305b799be16a23ae800cc78d,餐饮服务;餐饮相关场所;餐饮相关, 
201,6395,北苑南路91号附近,通州区,110112,北京市,北京市,温馨阁,116.639577,39.898349,6#20170621#dbc0b8bb8110ea879c1722306250ca15,餐饮服务;餐饮相关场所;餐饮相关, 
202,6405,房山城关万宁鸿发市场西12号,房山区,110111,北京市,北京市,陕西凉皮凉面熟食店,115.984904,39.708138,w#20170618#823427a13af1946ffd48b3529c0cb005,餐饮服务;餐饮相关场所;餐饮相关, 
203,6458,幸福路与环镇路交叉口西北50米,顺义区,110113,北京市,北京市,和河串串香(杨镇一街店),116.832979,40.15575,r#20170618#8fbdce2465a270bda02f45920033d30d,餐饮服务;餐饮相关场所;餐饮相关, 
204,6460,交大东路62号,海淀区,110108,北京市,北京市,台湾盐酥鸡(交大东路),116.350158,39.945514,k#20170618#d6a1b2186aba89a7fb60e604c1e0190f,餐饮服务;餐饮相关场所;餐饮相关, 
205,6472,幸福路世纪华联超市旁,顺义区,110113,北京市,北京市,梨香双缘熟食店,116.833091,40.154849,s#20170618#8e6ade44c377f5a6eb52b44436480f53,餐饮服务;餐饮相关场所;餐饮相关, 
206,6509,后沙峪空港工业区a区天柱西路12号院内1号楼西侧,顺义区,110113,北京市,北京市,北京棒约翰,116.559195,40.078645,4#20170618#ff0ef8ebac4a88f92782480128afb801,餐饮服务;餐饮相关场所;餐饮相关, 
207,6527,汽车博物馆东路盈坤世纪G座B1层,丰台区,110106,北京市,北京市,虾饭先生(总部基地店),116.303958,39.82563,d#20170618#c4280316153d4831f02a13869158e4b4,餐饮服务;餐饮相关场所;餐饮相关, 
208,6531,后沙峪村中心街附近,顺义区,110113,北京市,北京市,批发凉皮咸菜,116.540617,40.105592,6#20170618#e443c5b4edabe0c720a83fe86b347c85,餐饮服务;餐饮相关场所;餐饮相关, 
209,6556,新华西街58号院5号楼B区金街B区2-220,通州区,110112,北京市,北京市,郭记大石板烤肉(通州万达店),116.640468,39.904453,2#20170618#5ae5ad90827465ea22e90a604c43ac29,餐饮服务;餐饮相关场所;餐饮相关, 
210,6581,团南工业园南四路与团忠路交叉口东北50米,大兴区,110115,北京市,北京市,冰城烧烤,116.394026,39.751914,e#20170618#76417d56234e2a489456dd67d1f6d221,餐饮服务;餐饮相关场所;餐饮相关, 
211,6655,旧宫镇旧宫西路1号北京万源吉庆农副产品市场内1区1层492-494号,大兴区,110115,北京市,北京市,大同刀削面(万源店),116.424332,39.804095,q#20170618#af26e63bb5608d057bc88680850ba227,餐饮服务;餐饮相关场所;餐饮相关, 
212,6679,土桥华远好天地二层206号,通州区,110112,北京市,北京市,另肋韩国芝士肋排(华远好天地店),116.696452,39.87041,f#20170618#94b16ac88920960d0db934330dfa6741,餐饮服务;餐饮相关场所;餐饮相关, 
213,6684,新西路99号西大桥加油站北100米,密云区,110118,北京市,北京市,干哥俩・风干牛肉干(密云新西路店),116.834034,40.37085,g#20170618#a521b1e4ccb859cc58919d2362dceb06,餐饮服务;餐饮相关场所;餐饮相关, 
214,6731,兴丰大街与清华巷交叉口西北50米,大兴区,110115,北京市,北京市,卫记五谷煎饼,116.339095,39.744271,2#20170618#0402cae521b38454eeee7c7ba0956007,餐饮服务;餐饮相关场所;餐饮相关, 
215,6787,刘荆路与大礼路交叉口东150米,大兴区,110115,北京市,北京市,兴发熟食批发店,116.43592,39.557278,1#20170618#83b51e11561e8ebe1241d6b3ad71d626,餐饮服务;餐饮相关场所;餐饮相关, 
216,6841,民族大学西路22号楼一层底商,海淀区,110108,北京市,北京市,疆粉世家(魏公村店),116.316964,39.95215,2#20170618#ac6066395f10c97e5ba5363d425212dc,餐饮服务;餐饮相关场所;餐饮相关, 
217,6873,科星西路47号,昌平区,110114,北京市,北京市,鸭迷周黑鸭(霍营店),116.358074,40.073198,j#20170618#9b72cd789221b853d3ccedfbfc34b906,餐饮服务;餐饮相关场所;餐饮相关, 
218,6876,中山西街与西外街交叉口西北200米,顺义区,110113,北京市,北京市,山东呛面馒头(铁西路),116.64526,40.138438,p#20170618#e211bd48e4dd55b7813a14d53225edae,餐饮服务;餐饮相关场所;餐饮相关, 
219,6888,九棵树中街9号京通罗斯福广场B1层,通州区,110112,北京市,北京市,九婶包子(京通罗斯福广场),116.658357,39.889201,3#20170618#f48dc027846f907626666b313d797a95,餐饮服务;餐饮相关场所;餐饮相关, 
220,6917,亦庄经济开发区101号,大兴区,110115,北京市,北京市,猫山王(亦庄华联力宝店),116.501113,39.804736,l#20170618#01ca9ecb2eecfea01562fdfa1ca7c8b0,餐饮服务;餐饮相关场所;餐饮相关, 
221,6936,双峪路晨光饭店,门头沟区,110109,北京市,北京市,晨光饭店A座,116.106292,39.935061,2#20170618#2fa6048c50ace12ff861d2969093e53c,餐饮服务;餐饮相关场所;餐饮相关, 
222,6954,香苑街西100米,延庆区,110119,北京市,北京市,德业翼达炸肠第一家,115.988553,40.470011,2#20170618#8ae52253aa402cd23541a0e12c298ba9,餐饮服务;餐饮相关场所;餐饮相关, 
223,6963,房山南大街84号附近,房山区,110111,北京市,北京市,红门鲜猪肉,115.984552,39.693273,8#20170618#8b318fbbd506fdc28f8c6bbd1ec448ce,餐饮服务;餐饮相关场所;餐饮相关, 
224,6995,梨园镇李老公庄北,通州区,110112,北京市,北京市,杨记虾馆通州总店,116.634698,39.891723,2#20170618#44403c05dc958845c4ac829e737598ed,餐饮服务;餐饮相关场所;餐饮相关, 
225,7008,长安街6号楼附近,密云区,110118,北京市,北京市,北京蜀来宝餐饮连锁,116.844651,40.374166,g#20170618#b89ddac55646cbe4040ef719453adb51,餐饮服务;餐饮相关场所;餐饮相关, 
226,7026,大东路与拥军路交叉口西150米,顺义区,110113,北京市,北京市,众望早餐(拥军路),116.664408,40.123323,d#20170618#4f43e7d3591aceaa47c5a29ca8adf89d,餐饮服务;餐饮相关场所;餐饮相关, 
227,7071,南丰路32号附近,昌平区,110114,北京市,北京市,周黑鸭(南丰路),116.28522,40.152167,k#20170618#210418314abc9d17de6a1dbcc2315e40,餐饮服务;餐饮相关场所;餐饮相关, 
228,7108,次北路与潞西路交叉口西南100米,通州区,110112,北京市,北京市,益涵小笼包,116.582347,39.802689,i#20170618#6e885e4aeaef923317a5948c3520205c,餐饮服务;餐饮相关场所;餐饮相关, 
229,7131,西安门大街136号,西城区,110102,北京市,北京市,炙臻天成餐饮,116.3748,39.92234,a#20170620#4f4f4c9fbb7a5f056d1696f892ca3a87,餐饮服务;餐饮相关场所;餐饮相关, 
230,7136,金星路12号院2号楼13层1604室,大兴区,110115,北京市,北京市,鸡排公社,116.350175,39.76233,l#20170618#4a788c10b06a60dbdd7a3a41742dae2d,餐饮服务;餐饮相关场所;餐饮相关, 
231,7168,燕山东风街5号,房山区,110111,北京市,北京市,正宗天津烧饼(双泉路),115.963957,39.756805,x#20170618#4d0c078efb39d6feb1c585e40e3cb8ed,餐饮服务;餐饮相关场所;餐饮相关, 
232,7247,万寿路西街与东翠路交叉口南行100米路东,海淀区,110108,北京市,北京市,名客佳(东翠路),116.288115,39.909477,m#20170618#b7476e378d90771f9a5d85bfc0381b77,餐饮服务;餐饮相关场所;餐饮相关, 
233,7400,旧密古路与檀营街交叉口西南150米,密云区,110118,北京市,北京市,诚信馒头铺,116.868973,40.382977,y#20170618#46da898da0ab2131a9f0f5bab49399ab,餐饮服务;餐饮相关场所;餐饮相关, 
234,7402,太平庄北街南150米,昌平区,110114,北京市,北京市,嘿钵钵鸡(三旗百汇店),116.340204,40.062306,d#20170618#8057c98fd0cc869e783f664d361423f0,餐饮服务;餐饮相关场所;餐饮相关, 
235,7452,玉桥中路6号运河通源农贸市场内,通州区,110112,北京市,北京市,任胖子炸(清真总店),116.678322,39.897952,4#20170618#b5d9512328a9d370571431c8a86f910f,餐饮服务;餐饮相关场所;餐饮相关, 
236,7484,032县道西100米,昌平区,110114,北京市,北京市,第1佳大鸡排(沙河店),116.293239,40.148681,7#20170618#8962c6e2856188f2ccfa0cd95eb1d90c,餐饮服务;餐饮相关场所;餐饮相关, 
237,7570,西红门团河北村团庆街18号,大兴区,110115,北京市,北京市,幸福饼(团河店),116.386094,39.747864,m#20170618#aedef99e0fdaedbd0df0b8c6538adc0e,餐饮服务;餐饮相关场所;餐饮相关, 
238,7599,莲花街1号附近,延庆区,110119,北京市,北京市,北京烤鸭,115.982044,40.451051,p#20170621#b1adede7dda036eb5221fbb6cff17c69,餐饮服务;餐饮相关场所;餐饮相关, 
239,7603,黄鹅路5号,大兴区,110115,北京市,北京市,聚湘福食香阁(黄鹅路店),116.293844,39.753282,v#20170618#f6007443aa869613cb99597a53574f41,餐饮服务;餐饮相关场所;餐饮相关, 
240,7607,宋家庄宋庄路43号院对面,丰台区,110106,北京市,北京市,砂锅土豆粉,116.42884,39.850273,5#20170618#b91b975615a7827cb01f877bc360a035,餐饮服务;餐饮相关场所;餐饮相关, 
241,7620,兴华大街枣园路枣园地铁站D口,大兴区,110115,北京市,北京市,王福记煎饼坊(枣园路),116.332533,39.753281,h#20170618#0da179eff2de930afb936581d960e9eb,餐饮服务;餐饮相关场所;餐饮相关, 
242,7622,京密路附近,密云区,110118,北京市,北京市,正宗兰州牛肉拉面,116.890269,40.385561,b#20170621#791167688797c000f44fa8146b12a1c4,餐饮服务;餐饮相关场所;餐饮相关, 
243,7631,五爱屯西街与南苑西路交叉口西50米,丰台区,110106,北京市,北京市,善美饼屋(五爱屯店),116.377048,39.805011,f#20170618#f04fce68a247bff6c3946773b35a0495,餐饮服务;餐饮相关场所;餐饮相关, 
244,7684,狼垡东路西150米,大兴区,110115,北京市,北京市,4号豆制品,116.286605,39.781258,c#20170618#16579be28728eab62663c830a6182c24,餐饮服务;餐饮相关场所;餐饮相关, 
245,7708,首都机场岗山路42号北京亚美国际酒店,顺义区,110113,北京市,北京市,首都机场馨雅酒店T3航站楼店,116.619987,40.044827,z#20170618#50e46456bbbe11d80219a1795b58e789,餐饮服务;餐饮相关场所;餐饮相关, 
246,7721,四道口路京果商厦北10米,海淀区,110108,北京市,北京市,聚福烤羊腿(四道口店),116.345688,39.959534,j#20170618#eff6f9d79769cde8633cfcbe6ad9c9ff,餐饮服务;餐饮相关场所;餐饮相关, 
247,7729,二十里堡路与天纬二街交叉口南,顺义区,110113,北京市,北京市,鹏程熟食(二十里堡路),116.571375,40.078897,3#20170618#8330f070a4a476bc1d1314c04ce9d8ea,餐饮服务;餐饮相关场所;餐饮相关, 
248,7740,黄村兴华大街物美大卖场地下一层,大兴区,110115,北京市,北京市,台港脆皮鸡拌饭,116.333058,39.749887,o#20170618#d7d760b8be7e44c7a97036001cbd9ba1,餐饮服务;餐饮相关场所;餐饮相关, 
249,7787,马驹桥镇兴贸一街华润万家配送中心4号贴建库5层,通州区,110112,北京市,北京市,太平洋咖啡仓库,116.571227,39.766403,k#20170618#9476446708f723689374c8bb25637554,餐饮服务;餐饮相关场所;餐饮相关, 
250,7790,良乡东路伟业嘉园小区东里1号楼1单元903室,房山区,110111,北京市,北京市,蜜罐千层蛋糕,116.158677,39.731274,h#20170618#122828f373f2dfd98bd37467759e443d,餐饮服务;餐饮相关场所;餐饮相关, 
251,7837,上涝洼村密云华香农家院西南95米,密云区,110118,北京市,北京市,北京琴山民俗饭庄,117.25346,40.631242,5#20170618#53b7462a36df7b09cf3ea2a33eca6e16,餐饮服务;餐饮相关场所;餐饮相关, 
252,7841,西门外大街与鼓楼西大街交叉口北150米,密云区,110118,北京市,北京市,老北京猪头肉,116.83617,40.378708,f#20170618#46ee0916f8f94acad289b261b79c85b7,餐饮服务;餐饮相关场所;餐饮相关, 
253,7852,北石槽,顺义区,110113,北京市,北京市,雷小英北石槽熟食店,116.532831,40.248009,4#20170618#9449c4790f8de2106bd61d1f8ca903ed,餐饮服务;餐饮相关场所;餐饮相关, 
254,7886,大红门西前街31号,丰台区,110106,北京市,北京市,过桥米线VS黄焖鸡,116.403329,39.837997,8#20170621#10ff23d3082ca71426e17ac5ae814718,餐饮服务;餐饮相关场所;餐饮相关, 
255,7894,葫芦垡村昌顺路28号附近,房山区,110111,北京市,北京市,大饼馒头,116.213817,39.70326,m#20170618#a0906452f0894666dd3118dd20d757ee,餐饮服务;餐饮相关场所;餐饮相关, 
256,7896,五芳园26号楼9门102号,石景山区,110107,北京市,北京市,天桥陈(鲁谷南路),116.229158,39.89836,3#20170618#3428e454eec9037f922dd0f1a6cce189,餐饮服务;餐饮相关场所;餐饮相关, 
257,7917,富强路与富林巷交叉口东100米,大兴区,110115,北京市,北京市,兴联老师傅风味烤鸭,116.335683,39.737677,v#20170618#368e6ac4a3a1250aec9e9639bdde04eb,餐饮服务;餐饮相关场所;餐饮相关, 
258,7939,沙河镇于辛庄路20号,昌平区,110114,北京市,北京市,贝克汉堡(沙河店),116.294811,40.146933,y#20170618#d4de86c50f9c56e2d3cf5cac96aae555,餐饮服务;餐饮相关场所;餐饮相关, 
259,7969,苏州街76号大洋服装城1层,海淀区,110108,北京市,北京市,周黑鸭(苏州桥店),116.308172,39.964808,v#20170618#9c04b7a3c80fbb096eca512c906babdf,餐饮服务;餐饮相关场所;餐饮相关, 
260,8014,京深路与多宝路交叉口北,房山区,110111,北京市,北京市,杭州瘦肉小笼包(多宝路),116.148615,39.737234,9#20170618#80c8a9eff8246251b0350633a818f4f1,餐饮服务;餐饮相关场所;餐饮相关, 
261,8034,新顺北大街13号(小叶佳栗子南10米),顺义区,110113,北京市,北京市,府前缙云烧饼,116.651413,40.133121,c#20170618#c37e46782c34895887da851fde8b1ae9,餐饮服务;餐饮相关场所;餐饮相关, 
262,8035,戏楼胡同2号一层105室,东城区,110101,北京市,北京市,娃哈哈桶装水授权店,116.419013,39.945462,5#20170620#fa2da0b53533cffce073726dd2165385,餐饮服务;餐饮相关场所;餐饮相关, 
263,8089,中关村北大街17号,海淀区,110108,北京市,北京市,煎饼哥(厢白旗店),116.317196,40.016411,h#20170618#08edbae2e62d02843c392e79a9eb1a72,餐饮服务;餐饮相关场所;餐饮相关, 
264,8103,城关街道城关南大街40号,房山区,110111,北京市,北京市,阿泰包子(城关店),115.9845,39.69395,r#20170618#a5837a4f04a1de2ba2878d973e9ee385,餐饮服务;餐饮相关场所;餐饮相关, 
265,8160,峪口经济开发区峰云街5号天昊源度假村,平谷区,110117,北京市,北京市,小南国(峪口镇店),117.020829,40.143325,4#20170618#9f3f41f45b716837dbb3679d2931b798,餐饮服务;餐饮相关场所;餐饮相关, 
266,8162,兴房大街38号,房山区,110111,北京市,北京市,弘德瑞餐饮,115.987611,39.693239,a#20170618#0f484187211d582db9c7229712a4f88f,餐饮服务;餐饮相关场所;餐饮相关, 
267,8166,玉带河东街北50米,通州区,110112,北京市,北京市,mallflavon烘焙艺术家,116.672237,39.900301,w#20170618#9a1785bde2e9fabd029753e50801b583,餐饮服务;餐饮相关场所;餐饮相关, 
268,8169,安顺北路6号,大兴区,110115,北京市,北京市,鲜饺子(孙村店),116.403915,39.70745,p#20170618#8736fe946173ac3f43617fdf836559f2,餐饮服务;餐饮相关场所;餐饮相关, 
269,8180,石龙北路西150米,门头沟区,110109,北京市,北京市,凉皮凉面米皮牛筋面,116.110232,39.908991,n#20170618#538b69c6727e2f3bd156d75f183dd6f7,餐饮服务;餐饮相关场所;餐饮相关, 
270,8231,怀沙路附近,怀柔区,110116,北京市,北京市,百鹭湖农庄,116.606328,40.353426,j#20170618#650eab04c77c375bca9ad863642ba850,餐饮服务;餐饮相关场所;餐饮相关, 
271,8271,景园街10号d座,大兴区,110115,北京市,北京市,汉丽轩,116.532863,39.781105,m#20170618#517200c4a2fffda1a37079c02f199c76,餐饮服务;餐饮相关场所;餐饮相关, 
272,8275,龙湖天街2-123号,大兴区,110115,北京市,北京市,妮莱肯汉堡炸鸡(龙湖天街店),116.31984,39.686985,t#20170618#4808731110da453311b7dfbe16441a8a,餐饮服务;餐饮相关场所;餐饮相关, 
273,8354,北京西站南路与茶马街交界处向南30米(橡树林酒店一层),丰台区,110106,北京市,北京市,德州扒鸡(西站南路店),116.321401,39.879292,q#20170618#6a074be7c4e84ec12efe58306f8b689d,餐饮服务;餐饮相关场所;餐饮相关, 
274,8357,武警路临42号附近,大兴区,110115,北京市,北京市,鸡蛋灌饼,116.286047,39.784922,a#20170618#40a2589369f662c91dce6dd19d93e359,餐饮服务;餐饮相关场所;餐饮相关, 
275,8400,昌平路380号院7号楼浩客购物超市斜对面,昌平区,110114,北京市,北京市,捌零食代龟锅主题餐厅,116.319728,40.069489,z#20170618#5c11fa5d019d006f0c9d9ec4434900e1,餐饮服务;餐饮相关场所;餐饮相关, 
276,8410,亦庄荣京西街经开大厦B1-112,大兴区,110115,北京市,北京市,新疆阿达西餐厅(亦庄店),116.497468,39.785791,v#20170618#353592dc90a7347d0d9d8c1699b5b11f,餐饮服务;餐饮相关场所;餐饮相关, 
277,8439,狼垡东路15号,大兴区,110115,北京市,北京市,正宗武汉绝味久久鸭,116.285379,39.782197,6#20170618#317fd98c8aa84a64f1e4b651587cf3fb,餐饮服务;餐饮相关场所;餐饮相关, 
278,8461,西北旺付家窑甲2号,海淀区,110108,北京市,北京市,鱼头泡饼(西北旺店),116.260187,40.040874,v#20170618#1630b09212773e1b9eb10403501ec63a,餐饮服务;餐饮相关场所;餐饮相关, 
279,8475,民族大学西路韦伯时代C座东门,海淀区,110108,北京市,北京市,张姐麻辣拌烤肉,116.322239,39.953927,j#20170618#96a82f14da04245741d66d6faf7f22a3,餐饮服务;餐饮相关场所;餐饮相关, 
280,8499,志新西路11号,海淀区,110108,北京市,北京市,包容心包子(志新路店),116.365295,39.994156,5#20170618#8dea6bb80b362d74d193985a7ffb79f4,餐饮服务;餐饮相关场所;餐饮相关, 
281,8507,小王辛庄南路与府前二街交叉口西100米,顺义区,110113,北京市,北京市,福裕老鸭汤,116.573746,40.064611,a#20170618#966907fa392550e8c7ef90f03bba3d04,餐饮服务;餐饮相关场所;餐饮相关, 
282,8534,西关大街万达广场B区149-150,通州区,110112,北京市,北京市,永顺炸鸡(万达店),116.643096,39.905046,v#20170618#aa5aee0d2d7d8c4227eb69a0b730e1cd,餐饮服务;餐饮相关场所;餐饮相关, 
283,8580,树桥路北50米,大兴区,110115,北京市,北京市,北京片皮烤鸭(树桥路),116.419377,39.81012,h#20170618#8d2949e42d92e726ef99ee59e124e04c,餐饮服务;餐饮相关场所;餐饮相关, 
284,8586,横五条与顺四条交叉口东50米,丰台区,110106,北京市,北京市,吉祥瑞龙爆肚轩,116.426957,39.85435,m#20170618#58c07b8ae2fc4d02889d83cfe690cffd,餐饮服务;餐饮相关场所;餐饮相关, 
285,8611,新华西街42号楼附近,通州区,110112,北京市,北京市,呀兔头(1号店),116.646454,39.906384,e#20170618#0e80dd39728a3ade8bae7d45cf689220,餐饮服务;餐饮相关场所;餐饮相关, 
286,8662,杨秀店路与金桥路交叉口西50米,通州区,110112,北京市,北京市,四海宾客,116.557998,39.726179,0#20170618#c495b8e90d44862ea85b4bf3f3f39e8c,餐饮服务;餐饮相关场所;餐饮相关, 
287,8676,回龙观地铁站A口东北50米,昌平区,110114,北京市,北京市,德口福包子(同成街),116.336937,40.071105,2#20170618#325222293279a3374330e342cc5c66b8,餐饮服务;餐饮相关场所;餐饮相关, 
288,8738,兴丰街道龙和大道瑞康家园24号楼南门口,大兴区,110115,北京市,北京市,雪松主食厨房(富强路),116.341981,39.737807,c#20170618#9d6a16e552475c3c0b53b9e5c0327a39,餐饮服务;餐饮相关场所;餐饮相关, 
289,8799,马驹桥镇南堤村,通州区,110112,北京市,北京市,大拇指熟食店,116.576646,39.769519,9#20170618#e74c030bfe57fe7f0e3c45b4e8e41d50,餐饮服务;餐饮相关场所;餐饮相关, 
290,8816,张台路与015县道交叉口西北100米,通州区,110112,北京市,北京市,农家土菜馆,116.701278,39.847816,3#20170618#e6f8aa875b2b33ab27101c2cf7a50d69,餐饮服务;餐饮相关场所;餐饮相关, 
291,8861,中惠国际大厦B1座底商,石景山区,110107,北京市,北京市,喜鹊咖啡简餐生活方式,116.224318,39.904491,n#20170618#247944b6a169a675531ba9bfd6fe7398,餐饮服务;餐饮相关场所;餐饮相关, 
292,8872,白堆子超市发方记紫玉板栗店,海淀区,110108,北京市,北京市,正宗陕西汉中魏氏凉皮,116.33195,39.926863,x#20170618#1fae286c18eaf23f31adb0da208d110e,餐饮服务;餐饮相关场所;餐饮相关, 
293,8903,站前街1号隆华购物中心F6层,顺义区,110113,北京市,北京市,小米鸡排(隆华购物中心),116.65033,40.127003,m#20170618#b8200ef7775423bf4fddf2f3a721f299,餐饮服务;餐饮相关场所;餐饮相关, 
294,8927,临泓路17号附近,丰台区,110106,北京市,北京市,河间驴肉火烧(临泓路),116.398984,39.84501,j#20170618#28dde3137b046fe8cb83f19b5bddf56a,餐饮服务;餐饮相关场所;餐饮相关, 
295,8963,长虹西路69号1幢附近,房山区,110111,北京市,北京市,西潞园熟食,116.121178,39.726578,k#20170618#ebbaf8c8b99e65e1be796b0d9eda320b,餐饮服务;餐饮相关场所;餐饮相关, 
296,8974,西周路238号附近,通州区,110112,北京市,北京市,华少烧烤,116.556927,39.725336,b#20170618#1cc00d7e3c68b7f39e55665be8be58f8,餐饮服务;餐饮相关场所;餐饮相关, 
297,9036,西红门镇寿宝庄村,大兴区,110115,北京市,北京市,皖乡情:潜山食府,116.382535,39.777997,h#20170618#528245dd2486cf44d67da75cbf6b201d,餐饮服务;餐饮相关场所;餐饮相关, 
298,9136,太师屯马场村下两河25号,密云区,110118,北京市,北京市,田园小栈,117.266864,40.62662,1#20170621#5f554f9c086c85dd90893827c8bf7578,餐饮服务;餐饮相关场所;餐饮相关, 
299,9160,马驹桥镇,通州区,110112,北京市,北京市,兴源熟食(总店),116.550066,39.758904,b#20170618#f7ca93a6d94cdf2cfd55bc6a43445e65,餐饮服务;餐饮相关场所;餐饮相关, 
300,9187,北斜街193号,平谷区,110117,北京市,北京市,久久鸭,117.125637,40.142941,p#20170618#206bc2c3046cc51ddc8e1ab112b8502e,餐饮服务;餐饮相关场所;餐饮相关, 
301,9226,回龙观镇文华西路文华市场4号,昌平区,110114,北京市,北京市,老城里包子,116.337988,40.081959,5#20170618#a6718aa04501026de18649e41280a318,餐饮服务;餐饮相关场所;餐饮相关, 
302,9245,兴华中街与t马路交叉口北100米,通州区,110112,北京市,北京市,绝味王,116.545644,39.756056,4#20170618#4b432822db2e207d2d12a7552b535c15,餐饮服务;餐饮相关场所;餐饮相关, 
303,9260,群芳南街与颐瑞中三街交叉口东北100米,通州区,110112,北京市,北京市,清远楼,116.678234,39.863809,c#20170618#93f8c007a83a3f316fe9821a89ff9ba3,餐饮服务;餐饮相关场所;餐饮相关, 
304,9287,二环到三环西站南广场粥面故事旁,丰台区,110106,北京市,北京市,久久丫(广莲路),116.323665,39.893491,h#20170618#807d9e2a37935ec4e9c29cbb0e994ea0,餐饮服务;餐饮相关场所;餐饮相关, 
305,9295,香山路西200米,海淀区,110108,北京市,北京市,北京正宗包子店,116.221827,39.995326,i#20170618#75c0f969b607fa0781f4486f5ca22afe,餐饮服务;餐饮相关场所;餐饮相关, 
306,9375,李遂镇柳各庄村环东路61号,顺义区,110113,北京市,北京市,若相惜蛋糕房,116.757888,40.093286,5#20170618#431efd0e2499967b2e511924ffd021c6,餐饮服务;餐饮相关场所;餐饮相关, 
307,9398,梨园镇小稿村村委会东500米(小街宏兴农贸市场),通州区,110112,北京市,北京市,永红水业+,116.647613,39.871243,4#20170618#b706a4364431cc500a7abb8ab5cd8e1f,餐饮服务;餐饮相关场所;餐饮相关, 
308,9470,西红门寿宝庄车站旁,大兴区,110115,北京市,北京市,李记周黑鸭店,116.379494,39.777125,7#20170618#2e61b2cf5deac37670654d91549f4178,餐饮服务;餐饮相关场所;餐饮相关, 
309,9548,马卷村南大街101号附近,顺义区,110113,北京市,北京市,北京付强馒头店,116.615153,40.174027,1#20170618#0d7bf3ff61a2847c9efe284edaa0874d,餐饮服务;餐饮相关场所;餐饮相关, 
310,9620,车辇店胡同1号(雍和园),东城区,110101,北京市,北京市,久久鸭脖王(车辇胡同店),116.407972,39.945631,i#20170617#2b39fee37ec59cfed45714b48f4d9824,餐饮服务;餐饮相关场所;餐饮相关, 
311,9633,海淀大街38号楼1层1-09(永和大王右侧),海淀区,110108,北京市,北京市,绝味鸭脖(苏州街店),116.306141,39.981725,k#20170618#ad3112337e039d760e9ecaa26b381407,餐饮服务;餐饮相关场所;餐饮相关, 
312,9654,长安街3号院南楼3-2号,密云区,110118,北京市,北京市,松枝记水果捞(物美后门店),116.844226,40.374427,u#20170618#7f41494ae8b9d0dc7a12a29e500c1acd,餐饮服务;餐饮相关场所;餐饮相关, 
313,9738,南环路26-8号(花样年华小区底商昌平法院对面),昌平区,110114,北京市,北京市,大草原烤肉坊(南环路店),116.229954,40.212263,n#20170618#b2537c6ce84d121f6713e2785f1de214,餐饮服务;餐饮相关场所;餐饮相关, 
314,9753,兴丰南大街与市场西巷交叉口东北50米,大兴区,110115,北京市,北京市,万锅香过桥米线石锅拌饭,116.34007,39.72929,h#20170618#04e5b72b61833f52b6767365e5eda5c8,餐饮服务;餐饮相关场所;餐饮相关, 
315,9764,古城西路13号楼,石景山区,110107,北京市,北京市,永红饺子馆,116.185322,39.916975,a#20170618#89d29eb4d252ae878c881418d48615a9,餐饮服务;餐饮相关场所;餐饮相关, 
316,9800,北苑南路28号9号楼1层商8,通州区,110112,北京市,北京市,新发地菜篮子果蔬店,116.647896,39.893758,1#20170618#5bcd3e16bdf061ec4e67026c6b0640fd,餐饮服务;餐饮相关场所;餐饮相关, 
317,9812,羊坊店东路121号(地铁军博站东南角南300米),海淀区,110108,北京市,北京市,江边巫山烤全鱼,116.323805,39.900955,g#20170618#cd394d95b310efed5622427ca67ede20,餐饮服务;餐饮相关场所;餐饮相关, 
318,9846,城北街道小叶佳栗子胡同50米处,昌平区,110114,北京市,北京市,杨记麻辣鸭颈王,116.233083,40.216597,1#20170621#6d6c87b73a3ff86c6f50f8e9fe37b1f7,餐饮服务;餐饮相关场所;餐饮相关, 
319,9865,大成路西口黄记煌楼下,丰台区,110106,北京市,北京市,台湾手抓饼(大成路),116.255438,39.889742,9#20170618#9e288b8e159aa01b5d4feb8b02d1b8c0,餐饮服务;餐饮相关场所;餐饮相关, 
320,9874,阜成路30号空军总医院南门,海淀区,110108,北京市,北京市,京百客熟食店(阜成路店),116.301145,39.919934,a#20170618#09e35e3f41390749187e51257469885f,餐饮服务;餐饮相关场所;餐饮相关, 
321,9903,双安商场永隆昌美食城内,海淀区,110108,北京市,北京市,焦耳・川式快餐(人大店),116.326576,39.96689,0#20170621#0082140a47aca32c4a076b682c2e119a,餐饮服务;餐饮相关场所;餐饮相关, 
322,9929,通马路16号附近,通州区,110112,北京市,北京市,牛肉拉面刀削面,116.613893,39.850088,m#20170618#21f173ce01376e13aade0e4dddc00ed8,餐饮服务;餐饮相关场所;餐饮相关, 
323,9943,良乡长阳广阳新路7号院半岛金街1号楼二层207,房山区,110111,北京市,北京市,亚洲部落7印度餐厅,116.212947,39.754235,7#20170621#2a4127dd60760465d2d650201ae6d525,餐饮服务;餐饮相关场所;餐饮相关, 
324,9949,长阳镇长阳大街绿地缤纷城东口,房山区,110111,北京市,北京市,阿泰包子(良乡西门80店),116.135646,39.730144,s#20170618#f40c76543ac73d866bd0a10db686888f,餐饮服务;餐饮相关场所;餐饮相关, 
325,9992,中兴街与东顺街西三条交叉口,顺义区,110113,北京市,北京市,山东手工呛面馒头,116.486487,40.09676,9#20170618#d61decdb6854f218e99b8c91ddbf8ff0,餐饮服务;餐饮相关场所;餐饮相关, 
326,10008,小王辛庄南路与王辛庄路交叉口南50米,顺义区,110113,北京市,北京市,久久鸭王(小王辛庄南路),116.575555,40.068523,q#20170618#2990068fe70e56bcd7acf2aac386c216,餐饮服务;餐饮相关场所;餐饮相关, 
327,10020,金顶西街与金顶路交叉口东北50米,石景山区,110107,北京市,北京市,武汉正宗久久鸭王(金顶路),116.161397,39.926441,p#20170618#edea70be18d9aba6f3591d0ae8237d06,餐饮服务;餐饮相关场所;餐饮相关, 
328,10037,蓟门里小区3号楼,海淀区,110108,北京市,北京市,阿四烧烤,116.351268,39.970226,h#20170618#1a313520e97fc412cf550a3908e915b6,餐饮服务;餐饮相关场所;餐饮相关, 
329,10038,交大东路交大家园2号楼门市名门花甲店,海淀区,110108,北京市,北京市,名门花甲(交通大学店),116.344619,39.949126,e#20170618#d099d9bb636bcc57761600a5b956ec1e,餐饮服务;餐饮相关场所;餐饮相关, 
330,10071,马桥北街与马驹桥中学路交叉口西南200米,通州区,110112,北京市,北京市,武大郎灌饼,116.553157,39.759247,c#20170618#ca2635fe81356a70fbe21271bb104db5,餐饮服务;餐饮相关场所;餐饮相关, 
331,10085,经济技术开发区北京亦庄林肯公园B区南门28号楼103,大兴区,110115,北京市,北京市,孚味和风寿司店,116.496273,39.804691,l#20170618#0a1227b6ebe3daf77f41c7577a1b4d6d,餐饮服务;餐饮相关场所;餐饮相关, 
332,10124,五塔寺村24号(石刻艺术博物馆内),海淀区,110108,北京市,北京市,法国会议之家,116.330354,39.944928,z#20170621#efab7e59a2237f7f7e4c6ccd13dddd88,餐饮服务;餐饮相关场所;餐饮相关, 
333,10159,南半壁店小区路7号附近,顺义区,110113,北京市,北京市,大通熟食,116.627361,40.030245,1#20170618#5f8b5fee70521285355eef43de412bf7,餐饮服务;餐饮相关场所;餐饮相关, 
334,10174,马驹桥镇兴华西大街8号,通州区,110112,北京市,北京市,宏运一品粥(马驹桥店),116.545636,39.755853,9#20170618#446d4558d0d55e257cae573e187fbf56,餐饮服务;餐饮相关场所;餐饮相关, 
335,10181,丰台南路108号商铺,丰台区,110106,北京市,北京市,晨光烧饼(丰台南路店),116.295032,39.84154,h#20170618#13b106169962666e40bdbe3a3bb4e447,餐饮服务;餐饮相关场所;餐饮相关, 
336,10188, ,昌平区,110114,北京市,北京市,无为板鸭熟食店,116.289908,40.099386,j#20170618#ec114fec2d2799bfbd1a80b43d7226e3,餐饮服务;餐饮相关场所;餐饮相关, 
337,10194, ,昌平区,110114,北京市,北京市,都一味熟食店,116.374827,40.096452,0#20170618#fe7003838cafd65b863a0ccc361a64dc,餐饮服务;餐饮相关场所;餐饮相关, 
338,10202,长安街3号附近,密云区,110118,北京市,北京市,松枝记,116.844226,40.374427,n#20170621#2a0f842d8a882fcca7d308352704a804,餐饮服务;餐饮相关场所;餐饮相关, 
339,10227,后沙峪物美大卖场底商美食城1号,顺义区,110113,北京市,北京市,杂粮煎饼(后沙峪物美店),116.54169,40.099125,b#20170618#d34d3c0e18b732da4106428ad18c5dae,餐饮服务;餐饮相关场所;餐饮相关, 
340,10228,梨园镇九棵树东路14号楼底商,通州区,110112,北京市,北京市,尚汤馆老百姓包子,116.662136,39.889691,s#20170618#5d2a23f4b68d35ea239691687af04782,餐饮服务;餐饮相关场所;餐饮相关, 
341,10236,黄鹅路26号附近,大兴区,110115,北京市,北京市,麦麦饼屋,116.285303,39.752794,f#20170621#5d15daeefc366fa1e99ba1144fdaa421,餐饮服务;餐饮相关场所;餐饮相关, 
342,10248,南半壁店小区路36号附近,顺义区,110113,北京市,北京市,河间香村驴肉火烧,116.627658,40.029668,y#20170618#87f8a72afb7a49164fa0ed805412cc77,餐饮服务;餐饮相关场所;餐饮相关, 
343,10261,金顶西街与金顶路交叉口旁,石景山区,110107,北京市,北京市,天津风味烧饼(金顶路),116.161357,39.926442,6#20170618#0827fddbd24d93041647911b13f7dabb,餐饮服务;餐饮相关场所;餐饮相关, 
344,10296,水厂路与温南路交叉口西150米,昌平区,110114,北京市,北京市,QQ小火锅,116.127227,40.234569,e#20170621#cc1eb9c82188f95e2319e384efa31f63,餐饮服务;餐饮相关场所;餐饮相关, 
345,10297,铁西路附近,顺义区,110113,北京市,北京市,西辛小饭桌(一部),116.643499,40.134382,3#20170618#c5c09493b4a54f40f288d21ece22d959,餐饮服务;餐饮相关场所;餐饮相关, 
346,10298,彰化路138号院内,海淀区,110108,北京市,北京市,望京小腰,116.279845,39.94101,b#20170618#0e7dadcab2ba4fcf8f78f0867ed62dd3,餐饮服务;餐饮相关场所;餐饮相关, 
347,10329,北苑南路16号13栋-1号,通州区,110112,北京市,北京市,京轩渝莫哥菜馆,116.64188,39.900092,t#20170618#0d44aa7c62f2a66cf31ba75b1e239e87,餐饮服务;餐饮相关场所;餐饮相关, 
348,10365,南环东路昌盛园小区15号楼7号商铺,昌平区,110114,北京市,北京市,烟酒商城,116.253412,40.212966,c#20170618#9a50407f578bbe256f68663fe09b5709,餐饮服务;餐饮相关场所;餐饮相关, 
349,10377,小红门路2号-2-8,大兴区,110115,北京市,北京市,玻璃鱼片,116.453541,39.821707,1#20170618#55fd508414b5ec5da2924a6599d96073,餐饮服务;餐饮相关场所;餐饮相关, 
350,10412,西红门地铁站麦当劳对面底商,大兴区,110115,北京市,北京市,晋来顺,116.329862,39.79108,7#20170621#e10f0cb7ded98b71b3144d42a618cb48,餐饮服务;餐饮相关场所;餐饮相关, 
351,10441,回龙观西大街与育知东路交叉口东南150米,昌平区,110114,北京市,北京市,徐记久久鸭王,116.333995,40.078364,i#20170618#130078a991c1da92047d4f8d996c5b5c,餐饮服务;餐饮相关场所;餐饮相关, 
352,10457,梨园北街与玉桥西路交叉口东50米,通州区,110112,北京市,北京市,熟食麻辣拌,116.672376,39.88617,a#20170618#01180d90284b6278b887d0885035d723,餐饮服务;餐饮相关场所;餐饮相关, 
353,10468,大窦路下坡店村委会南50米路西,房山区,110111,北京市,北京市,忆褚酱味斋,116.071135,39.679145,3#20170621#4a3649471d037cf4024c3ee4c3e75989,餐饮服务;餐饮相关场所;餐饮相关, 
354,10530,大成路13号附近,丰台区,110106,北京市,北京市,德州福扒鸡酱肉,116.264124,39.892752,z#20170618#326ed8beffbc9c9d57dcb05c121b15fa,餐饮服务;餐饮相关场所;餐饮相关, 
355,10573,东顺街西三条与中兴街交叉口东50米,顺义区,110113,北京市,北京市,武汉九九鸭(东顺街西三条),116.486815,40.096192,e#20170618#13696690bd63ada77182a502cb7272c6,餐饮服务;餐饮相关场所;餐饮相关, 
356,10586,黄亦路48号附近,大兴区,110115,北京市,北京市,江小白,116.38124,39.76398,7#20170618#9aa133a2e0f2f7e86a33b49ef3fa02f6,餐饮服务;餐饮相关场所;餐饮相关, 
357,10706,定北路南50米,昌平区,110114,北京市,北京市,武汉久久鸭,116.270431,40.111484,z#20170618#f5fcb3d37e128f24bf4b07d74f0d6819,餐饮服务;餐饮相关场所;餐饮相关, 
358,10711,树桥路5号附近,大兴区,110115,北京市,北京市,东子熏鸡酱肉,116.420518,39.810709,i#20170618#c0937e791a265aebeec9bc191feac9a5,餐饮服务;餐饮相关场所;餐饮相关, 
359,10741,南丰路与百沙路交叉口东150米,昌平区,110114,北京市,北京市,仕比客大鸡排(百沙路),116.289219,40.149165,5#20170618#523e09f4fdf3e2ee1bad06106070ff16,餐饮服务;餐饮相关场所;餐饮相关, 
360,10764,友谊路唐家岭新城6号商业楼3层,海淀区,110108,北京市,北京市,惠丰堂饭庄(唐家岭店),116.274781,40.065119,s#20170618#d0640dda2fe7cd94baed0bfa0e00307a,餐饮服务;餐饮相关场所;餐饮相关, 
361,10772,宏都路10号附近,大兴区,110115,北京市,北京市,老北京烧饼夹肉(西红门店),116.338449,39.799757,6#20170618#1c29c40ea8c6fea78d2d09f292e54cda,餐饮服务;餐饮相关场所;餐饮相关, 
362,10774,安宁庄路西三旗桥东南侧平房,海淀区,110108,北京市,北京市,轩爷小馆(西三旗店),116.327492,40.053681,p#20170618#bd4e7ca60dc1242174df53da9367db85,餐饮服务;餐饮相关场所;餐饮相关, 
363,10779,旧宫镇旧忠路西二条1号,大兴区,110115,北京市,北京市,小胖烤肉,116.45094,39.805165,3#20170618#b3e69f397e74076df6352013a60acb67,餐饮服务;餐饮相关场所;餐饮相关, 
364,10785,温泉镇温泉苗圃车站往南400米(白家疃村西口菜市场旁),海淀区,110108,北京市,北京市,一只好鸡大鸡排(温泉店),116.172958,40.042756,e#20170618#d75cb4d193474739201a3c23bc78da7e,餐饮服务;餐饮相关场所;餐饮相关, 
365,10852,雁栖镇下庄村骨里香熟食店,怀柔区,110116,北京市,北京市,骨里香(装备学院医院西北),116.661481,40.358895,l#20170618#51261b1b44abad6f90e59d8770e896d5,餐饮服务;餐饮相关场所;餐饮相关, 
366,10853,燕城北苑小区门口正对面,昌平区,110114,北京市,北京市,无肉不欢,116.439583,40.089813,d#20170618#540c8624117dccc19bf7ac069c17d682,餐饮服务;餐饮相关场所;餐饮相关, 
367,10894,马家堡路39号,丰台区,110106,北京市,北京市,艾乙卜烤肉,116.383899,39.859057,7#20170621#d383f9ab87794cc951115c99ed77c287,餐饮服务;餐饮相关场所;餐饮相关, 
368,10895,水仙东路三元村市场内,通州区,110112,北京市,北京市,味美味(三元村华联超市店),116.698049,39.912874,f#20170618#3ffc125218a2ec08ce27f7072bb71778,餐饮服务;餐饮相关场所;餐饮相关, 
369,10933,定泗桥附近,昌平区,110114,北京市,北京市,旺旺北京果木烤鸭,116.279085,40.109698,x#20170618#70fa0a5a4e10088d78fa4f2591ba8644,餐饮服务;餐饮相关场所;餐饮相关, 
370,10960,琉璃河镇中原大街188号,房山区,110111,北京市,北京市,日用百货超市(刘李店分店),116.034638,39.614927,4#20170618#de679c56551febd9148f697b2b86ef28,餐饮服务;餐饮相关场所;餐饮相关, 
371,10962,北七家镇郑各庄村西水城会议中心能量馆1层4号,昌平区,110114,北京市,北京市,与食聚进,116.373468,40.102053,y#20170618#7de3401926b4be2888d72495bbf09c18,餐饮服务;餐饮相关场所;餐饮相关, 
372,10982,木樨园桥西公交车站西罗园底商,丰台区,110106,北京市,北京市,八度坊,116.393132,39.85675,c#20170618#f37516ac28c8ebe551faa31fa2ada14d,餐饮服务;餐饮相关场所;餐饮相关, 
373,10992,格兰山水一期6号楼底商一层608,延庆区,110119,北京市,北京市,小聚于此,115.974278,40.467011,7#20170618#fd2f81afa9537dc98f86804b32234626,餐饮服务;餐饮相关场所;餐饮相关, 
374,11077,太平庄中街京妮儿童汇南门2层,昌平区,110114,北京市,北京市,有家潮汕砂锅粥(天通苑店),116.415492,40.068155,0#20170618#2af80540000abace9bfd47ec201b7ac6,餐饮服务;餐饮相关场所;餐饮相关, 
375,11083,房易路附近,房山区,110111,北京市,北京市,夏炙寒炉,115.796597,39.544003,a#20170618#a93ccbf2c4271ab8b4e9aeb107888b52,餐饮服务;餐饮相关场所;餐饮相关, 
376,11097,大井后街25号宏利不锈钢西10米,丰台区,110106,北京市,北京市,正宗武汉久久鸭(大井路),116.273117,39.870433,3#20170621#59c007473b0c6b206f459bc46184db00,餐饮服务;餐饮相关场所;餐饮相关, 
377,11108,科技路临99号附近,大兴区,110115,北京市,北京市,辰光烧饼(庑殿路),116.444146,39.802292,u#20170618#4d91600a4d7bc7dc22ff5169d21d93cf,餐饮服务;餐饮相关场所;餐饮相关, 
378,11109,北五村小区外环路与四支路北段交叉口东南50米,通州区,110112,北京市,北京市,老幺凉皮米皮,116.549885,39.765268,f#20170618#bb0e7d58a10aa4c2794599d0edf13fe0,餐饮服务;餐饮相关场所;餐饮相关, 
379,11112,房易路附近,房山区,110111,北京市,北京市,云香桥景,115.717321,39.570307,l#20170618#e3adeb85491ae63edb489b5819e44b34,餐饮服务;餐饮相关场所;餐饮相关, 
380,11114,回龙观文华市场,昌平区,110114,北京市,北京市,优麦香馒头店,116.337362,40.082089,7#20170618#0f3e15657ace857e27eb129ef36da826,餐饮服务;餐饮相关场所;餐饮相关, 
381,11130,良乡大学城西地铁站,房山区,110111,北京市,北京市,食尚小厨,116.17624,39.722901,h#20170618#4e627d192686c26328b14555f8614259,餐饮服务;餐饮相关场所;餐饮相关, 
382,11136,西四环南路与西四环南路入口交叉口东50米,丰台区,110106,北京市,北京市,胡云章道口烧鸡,116.284002,39.849742,a#20170618#71df0261abb27ce422d465a463ebd7c1,餐饮服务;餐饮相关场所;餐饮相关, 
383,11148,东小口立汤路188号明珠百货(中东路)东广场地下一层食百汇美食广场,昌平区,110114,北京市,北京市,施氏砂锅居米线,116.415369,40.057649,j#20170618#c160bae77c0d7cd9ad8aa518ab8e0ef3,餐饮服务;餐饮相关场所;餐饮相关, 
384,11183,庄子营路47号附近,顺义区,110113,北京市,北京市,熟食小菜,116.65462,40.065252,f#20170618#e5dc877a3b87c6f3f25b7a107fc5a4c6,餐饮服务;餐饮相关场所;餐饮相关, 
385,11186,中山南大街甲1号楼附近,顺义区,110113,北京市,北京市,金圣萝关烘焙店,116.651071,40.136977,1#20170618#dff53e4f63bfdc6561ef458b102900ae,餐饮服务;餐饮相关场所;餐饮相关, 
386,11340,康定街18号永康公寓园区内2号楼34号(地铁亦庄线西出口A1即可看到),通州区,110112,北京市,北京市,久久丫(同济南路店),116.539108,39.772138,i#20170618#c7eb072ea7fcd8c1030340a6f5183a2e,餐饮服务;餐饮相关场所;餐饮相关, 
387,11374,幸福街63号附近,顺义区,110113,北京市,北京市,好哥们东北水饺,116.704992,40.136586,0#20170618#625722d34dcdefb98163d24a4c894c82,餐饮服务;餐饮相关场所;餐饮相关, 
388,11384,司马台小岭,密云区,110118,北京市,北京市,香约四季,117.153717,40.690875,e#20170618#0108d86ba38a7e21627d76ffe6023ffa,餐饮服务;餐饮相关场所;餐饮相关, 
389,11428,檀营小区2号楼3单元101底商,密云区,110118,北京市,北京市,果海芳馨,116.861902,40.389072,5#20170618#a73e73d9d53ed2838271bac130d2ba61,餐饮服务;餐饮相关场所;餐饮相关, 
390,11445,新桥南大街18号(近物美超市),门头沟区,110109,北京市,北京市,顶风针西饼屋,116.106825,39.932038,k#20170618#c693a448b5fd5363df6dfb876d4b5549,餐饮服务;餐饮相关场所;餐饮相关, 
391,11456,永安中路与育新路交叉口西南50米,房山区,110111,北京市,北京市,土家公婆饼,115.980799,39.688539,s#20170618#72b41d6dabd804ba267f866417d9eb90,餐饮服务;餐饮相关场所;餐饮相关, 
392,11460,分钟寺大街与小红门路交叉口东南150米,丰台区,110106,北京市,北京市,哈尔滨烤冷面,116.454931,39.852583,q#20170618#974918e6801431c2779b362136b70ceb,餐饮服务;餐饮相关场所;餐饮相关, 
393,11468,岳各庄路口南200米,房山区,110111,北京市,北京市,永平餐厅牛牛宴,115.908929,39.612212,a#20170618#5183775e8eca86610c18b247895df5f5,餐饮服务;餐饮相关场所;餐饮相关, 
394,11473,天星街1号院7号楼绿地缤纷城附近,房山区,110111,北京市,北京市,TAMAoYAKI丸子烧专门店,116.160656,39.756564,3#20170618#e908a2b5d797860a55a51519128a0eb4,餐饮服务;餐饮相关场所;餐饮相关, 
395,11493,梨园站地铁口(近淘宝城),通州区,110112,北京市,北京市,溜香煎饼(梨园分店),116.667243,39.88382,v#20170618#827bea3d8eb19cf8225316d9d988593e,餐饮服务;餐饮相关场所;餐饮相关, 
396,11504,城关街道北市村670号附近,房山区,110111,北京市,北京市,菜子店,115.988044,39.683169,8#20170618#9e15f6ccd3bf762f93a9a6d59ab1b1f6,餐饮服务;餐饮相关场所;餐饮相关, 
397,11513,文化北街13号国泰百货南区F6层,平谷区,110117,北京市,北京市,欧巴厨房/铁板(国泰百货南区),117.111218,40.140828,r#20170618#dd84feadef59aeea16203c9e24023d24,餐饮服务;餐饮相关场所;餐饮相关, 
398,11531,鼓楼街道东门大街上营东区16号楼,密云区,110118,北京市,北京市,煎饼王之煎并天下(密云分店),116.856017,40.377831,k#20170618#0d61a5f6d1be73236839225d764c7c0c,餐饮服务;餐饮相关场所;餐饮相关, 
399,11563,杜家坎5号,丰台区,110106,北京市,北京市,牛肉拉面(杜家坎店),116.20252,39.845771,9#20170618#7cd8b31069f41e8b720c3fad559ce92f,餐饮服务;餐饮相关场所;餐饮相关, 
400,11670,慕田峪路114号,怀柔区,110116,北京市,北京市,翼松楼餐厅,116.563976,40.433457,p#20170618#85c7b6ffae0292a3d87db75d8474143e,餐饮服务;餐饮相关场所;餐饮相关, 
401,11673,东羊管胡同与西羊管胡同交叉口西150米,东城区,110101,北京市,北京市,TraktirrRestaurant,116.427393,39.942675,x#20170620#2cc53648e652532f8f340a2553787f73,餐饮服务;餐饮相关场所;餐饮相关, 
402,11719,九棵树中街9号京通罗斯福广场B1层,通州区,110112,北京市,北京市,花样料理(京通罗斯福广场),116.658456,39.889246,m#20170618#205f33615c6f0ba956b6862da37d453b,餐饮服务;餐饮相关场所;餐饮相关, 
403,11730,成府路29号(五道口国际食尚苑)一期地下一层,海淀区,110108,北京市,北京市,董记肉夹馍(学府美食城),116.338319,39.993134,u#20170618#d7066bdd1d7afea414c2aa03a4fa9c12,餐饮服务;餐饮相关场所;餐饮相关, 
404,11809,马驹桥中学路如家公寓西,通州区,110112,北京市,北京市,山西老李特色刀勾面,116.557743,39.760557,y#20170618#938a84ac5d604eb2e14085e4679f3db6,餐饮服务;餐饮相关场所;餐饮相关, 
405,11828,杨镇城市学院东200米,顺义区,110113,北京市,北京市,龙门煮,116.818879,40.156679,l#20170618#16f17217c88d1544b9a357e99a6d6c25,餐饮服务;餐饮相关场所;餐饮相关, 
406,11853,金大路4号附近,大兴区,110115,北京市,北京市,百姓生活菜馆,116.384567,39.764154,g#20170618#972819191232ebf0a026e596089e09b2,餐饮服务;餐饮相关场所;餐饮相关, 
407,11868,成府路28号五道口购物中心B1层,海淀区,110108,北京市,北京市,卤西西(五道口购物中心),116.339411,39.991976,h#20170618#ed59a38de56ec7a3fb66b9f83a9cbf2f,餐饮服务;餐饮相关场所;餐饮相关, 
408,11877,旺泉街道站前北街8号,顺义区,110113,北京市,北京市,周黑鸭(机场八分店),116.64288,40.137185,r#20170618#87cc5c87f4bf7748043ac2ccf527e50d,餐饮服务;餐饮相关场所;餐饮相关, 
409,11893,育知东路37号,昌平区,110114,北京市,北京市,遇见幸运溢香坊(龙泽店),116.333907,40.07436,7#20170621#198ca976a28c2deb0dc6e489a6d9a145,餐饮服务;餐饮相关场所;餐饮相关, 
410,11897,四支路北段附近,通州区,110112,北京市,北京市,立东铁板烧,116.553229,39.76561,m#20170618#df5f06077e8dba8f6ffb84e262350880,餐饮服务;餐饮相关场所;餐饮相关, 
411,11935,堂子胡同9号新一代商城7层,西城区,110102,北京市,北京市,妙味杰(西单店),116.375348,39.911687,m#20170616#5f270cca56f4413091b2be50bd0f5782,餐饮服务;餐饮相关场所;餐饮相关, 
412,11950,东小口镇天通苑三区甲26号楼8门,昌平区,110114,北京市,北京市,好适口经典主食,116.411669,40.078236,1#20170618#c574ad5c895bf1d72722c32c412ef01f,餐饮服务;餐饮相关场所;餐饮相关, 
413,11964,府前西街2号新悦百货F2层,怀柔区,110116,北京市,北京市,新画面(新悦百货),116.629373,40.313957,k#20170621#1b11e0537294780fb679b1f38ad4afc0,餐饮服务;餐饮相关场所;餐饮相关, 
414,11968,新顺北大街东侧中絮棉纺西侧1间,顺义区,110113,北京市,北京市,绝味鸭脖(新顺北大街店),116.651414,40.133098,b#20170618#2d264a4786aeb4c571b9676d5ec40163,餐饮服务;餐饮相关场所;餐饮相关, 
415,12074,东高地万源路首航七店门口,大兴区,110115,北京市,北京市,傻子烧鸡酱肉(万源路店),116.424276,39.8043,e#20170618#365853f2c234ae354e64adfe48e146ab,餐饮服务;餐饮相关场所;餐饮相关, 
416,12101,金星西路5号及5号院1号楼地下一层-11,大兴区,110115,北京市,北京市,茶大爷(绿地店),116.333989,39.764468,7#20170618#a1d50bf0d0d6aba2f631ff335b957495,餐饮服务;餐饮相关场所;餐饮相关, 
417,12109,蒲黄榆九巷16号院物美生活超市隔壁,丰台区,110106,北京市,北京市,味美鑫榴莲千层蛋糕店,116.418702,39.865577,d#20170618#9326965a14584a7c237f23792d143e41,餐饮服务;餐饮相关场所;餐饮相关, 
418,12157,砖厂南里40号楼一层135、136号(华远好天地迪卡侬旁),通州区,110112,北京市,北京市,好利来(土桥中街店),116.695683,39.87054,l#20170618#eeb193cff9b28cc200194b708b6989ad,餐饮服务;餐饮相关场所;餐饮相关, 
419,12205,鲁谷村7号楼底商,石景山区,110107,北京市,北京市,久久鸭(鲁古村路店),116.237836,39.900761,6#20170618#5ee5e6c81e3be1086dea3eca0b53f023,餐饮服务;餐饮相关场所;餐饮相关, 
420,12210,北三环外环辅路和平董桥向西50米(胜古东里南门)(化工大学南门),昌平区,110114,北京市,北京市,第1佳大鸡排(珠江大厦店),116.288152,40.099114,n#20170618#38cc5a1ff5b36ffc7672e5b199dde5c4,餐饮服务;餐饮相关场所;餐饮相关, 
421,12237,杨庄路2号52栋附近,通州区,110112,北京市,北京市,拾点阳光,116.638548,39.89848,d#20170618#1e4c550fdc01e5c4ce1245b82c9c2785,餐饮服务;餐饮相关场所;餐饮相关, 
422,12326,月坛西街甲2号附近,西城区,110102,北京市,北京市,品质早餐,116.349483,39.916935,0#20170617#7f593fbc921caaeea24175bc4e9de4b8,餐饮服务;餐饮相关场所;餐饮相关, 
423,12509,北清路平西王府公交站对面50米,昌平区,110114,北京市,北京市,晨光烧饼(温都水城店),116.374486,40.100975,7#20170618#f364773123afdf692083ca781966e18a,餐饮服务;餐饮相关场所;餐饮相关, 
424,12524,南场路与有余庄路交叉口西100米,大兴区,110115,北京市,北京市,穿骨香手撕烤鸭,116.43415,39.809286,q#20170618#aec0f304e2c3bf2f31a7645cf2ebfd91,餐饮服务;餐饮相关场所;餐饮相关, 
425,12641,燕平路9号(东关南里小区西门南50米路东),昌平区,110114,北京市,北京市,汉香纯味鸭脖,116.244895,40.214272,p#20170618#d1a6419dd6443c06c510441777763497,餐饮服务;餐饮相关场所;餐饮相关, 
426,12693,回南路106号,昌平区,110114,北京市,北京市,欢乐脆皮鸭(总部直营店),116.417126,40.088197,s#20170618#1b2fee67b836dca732f9246f02414b32,餐饮服务;餐饮相关场所;餐饮相关, 
427,12755,中兴街与裕新路交叉口西南100米,顺义区,110113,北京市,北京市,小刚炒菜烧烤,116.486666,40.097117,p#20170618#16d17a4979587da24fa5c231f4c7bf40,餐饮服务;餐饮相关场所;餐饮相关, 
428,12818,东兴隆街85号,东城区,110101,北京市,北京市,祈年号粤式,116.412303,39.898176,8#20170617#020ad88a86de4881cc6a505f8d682331,餐饮服务;餐饮相关场所;餐饮相关, 
429,12849,滨河路国信滨河大厦四层,门头沟区,110109,北京市,北京市,呦呦创课,116.111237,39.935145,o#20170618#e7ae7ef361fa2939fe79fb4d3bcab2a7,餐饮服务;餐饮相关场所;餐饮相关, 
430,12868,后街与大横街交叉口东150米,石景山区,110107,北京市,北京市,鹏程熟食(大横街),116.216318,39.890016,8#20170618#fa5f4e30a4d7845eaa9801d3081f41cb,餐饮服务;餐饮相关场所;餐饮相关, 
431,12899,行宫街62号,密云区,110118,北京市,北京市,北京宗印江面食店(行宫店),116.862704,40.381806,e#20170618#431b2519b8daa18bc0b5c7feada12aaf,餐饮服务;餐饮相关场所;餐饮相关, 
432,12955,光彩路与石榴庄路交叉口南100米,丰台区,110106,北京市,北京市,名客佳大鸡排(石榴庄店),116.414543,39.844988,o#20170618#5dc6f05eb3e3d14b902703550276f815,餐饮服务;餐饮相关场所;餐饮相关, 
433,13040,回龙观西大街华联商厦111号,昌平区,110114,北京市,北京市,洪七公叫花鸡,116.319763,40.075507,1#20170618#7f4890939233f1e26178b2a0cb93a8bc,餐饮服务;餐饮相关场所;餐饮相关, 
434,13079,阜石路喜隆多购物中心3层保利国际影城,石景山区,110107,北京市,北京市,抓娃娃,116.17171,39.923499,s#20170618#d43668253bbda18b3e14e97fe7fa3c00,餐饮服务;餐饮相关场所;餐饮相关, 
435,13174,成仪路与成寿寺路交叉口北150米,丰台区,110106,北京市,北京市,武汉久久鸭(小军店),116.446186,39.846772,a#20170618#bc41f29627b5907f2881cddddde71037,餐饮服务;餐饮相关场所;餐饮相关, 
436,13197,建外街道建外SOHO东区4号楼南侧底商,朝阳区,110105,北京市,北京市,达卡,116.458681,39.904917,p#20170617#dedfcb647042f88480a68348ea162af0,餐饮服务;餐饮相关场所;餐饮相关, 
437,13207,窦店镇兴隆庄村一区18号,房山区,110111,北京市,北京市,大灶台,116.153382,39.640451,4#20170618#b0fc2b9442495054cf5653e793705ace,餐饮服务;餐饮相关场所;餐饮相关, 
438,13251,回龙观文化东路田园风光雅苑马玉涛麻辣烫底商(平西府地铁D2口，超市发旁),昌平区,110114,北京市,北京市,名客佳大鸡排(平西府店),116.349299,40.088848,p#20170618#a34df98fbf033064e1bd216509efd1f3,餐饮服务;餐饮相关场所;餐饮相关, 
439,13268,大红门西路19号一层,丰台区,110106,北京市,北京市,黄金鸡柳(角门东店),116.386746,39.844366,k#20170618#c7a4014059cb69cb1ce674acd05eb32f,餐饮服务;餐饮相关场所;餐饮相关, 
440,13294,广渠门内大街地铁站(近张老坎火锅),东城区,110101,北京市,北京市,煎饼哥(广渠门店),116.434773,39.893292,v#20170616#894073f4f15b461279046391624b0aad,餐饮服务;餐饮相关场所;餐饮相关, 
441,13367,成寿寺路97号楼下,丰台区,110106,北京市,北京市,武汉农夫烤鸡(小军店),116.446188,39.846746,c#20170618#5271acd76fed7f83cbbf6ef446234ead,餐饮服务;餐饮相关场所;餐饮相关, 
442,13373,宋家庄地铁站西南口,丰台区,110106,北京市,北京市,武汉久久鸭(南顶路店),116.42786,39.843735,c#20170618#d9ca687f89a53868a5e864925e3e658a,餐饮服务;餐饮相关场所;餐饮相关, 
443,13422, ,顺义区,110113,北京市,北京市,百味庄苑4期,116.502891,40.220232,r#20170621#289d55c16e694ceff6a4d5f07e2f8ff2,餐饮服务;餐饮相关场所;餐饮相关, 
444,13425,万源北路93号楼附近,大兴区,110115,北京市,北京市,周黑鸭(旧宫店),116.424268,39.804328,3#20170618#5b730bfa92788ac6a0dcaabdd52604aa,餐饮服务;餐饮相关场所;餐饮相关, 
445,13438,花园路1号(近黄金港宾馆),海淀区,110108,北京市,北京市,杭州包子铺(花园北路),116.36475,39.981681,u#20170618#640c47226498e717ca728bfa5841b6d3,餐饮服务;餐饮相关场所;餐饮相关, 
446,13525,回龙观西大街与育知东路交叉口路南、西行约150米、龙门烤鱼坊底商,昌平区,110114,北京市,北京市,久久丫(港龙中心店),116.331961,40.078738,d#20170618#2fe20b0c81a0f3d2ef9463de4ee59d95,餐饮服务;餐饮相关场所;餐饮相关, 
447,13569,六里桥太平桥路15号永辉超市地下一层,丰台区,110106,北京市,北京市,虾饭先生(六里桥店),116.317306,39.879481,s#20170618#36e839ba6f2ea2ec67e307a58b2239e6,餐饮服务;餐饮相关场所;餐饮相关, 
448,13688,花乡看丹桥看丹村海之家对面,丰台区,110106,北京市,北京市,过桥米线,116.274726,39.837802,z#20170618#a3c611eb329897f66cb0bc8c7cdeefd6,餐饮服务;餐饮相关场所;餐饮相关, 
449,13694,银河南街2号院1号楼2层1单元202,石景山区,110107,北京市,北京市,二婶酸菜饼(鸿源美食城),116.221846,39.902788,t#20170618#6dd94b4aa4039f9db7cf4a86add4fea5,餐饮服务;餐饮相关场所;餐饮相关, 
450,13711,商业街(鞋帽商店对面),怀柔区,110116,北京市,北京市,姐弟俩中华名吃(怀柔分店),116.632996,40.31447,v#20170618#34455e89272c9746e33124a9f59777e6,餐饮服务;餐饮相关场所;餐饮相关, 
451,13722,神路街39日坛上街1-65号,朝阳区,110105,北京市,北京市,tp执串香,116.443549,39.919426,v#20170617#7123e18b421e45148d459757ed5c8d91,餐饮服务;餐饮相关场所;餐饮相关, 
452,13822,中心街11号附近,顺义区,110113,北京市,北京市,麦香缘包子馒头,116.495135,40.097952,d#20170618#aa95c075fb8c5d8df70e4788c0cb4a6f,餐饮服务;餐饮相关场所;餐饮相关, 
453,13833,南三环中路与南三环中路出口交叉口北150米,丰台区,110106,北京市,北京市,味百年,116.394175,39.858241,1#20170618#ee826a2efb5ec6843f815e02d033415f,餐饮服务;餐饮相关场所;餐饮相关, 
454,13848,马连道万丰基业大厦1楼底(北京西站附近),丰台区,110106,北京市,北京市,鑫利诚蛋糕(西站店),116.328315,39.874665,1#20170618#2243954b84aa50c9a394f128e8796c1f,餐饮服务;餐饮相关场所;餐饮相关, 
455,13963,回龙观西半壁店村村委会北行200米,昌平区,110114,北京市,北京市,久久鸭(回龙观北路),116.313409,40.072099,6#20170618#f9423fc21af1c2305b678289f53c3454,餐饮服务;餐饮相关场所;餐饮相关, 
456,14006,夕照寺街宝达大厦204号(五十中对面),东城区,110101,北京市,北京市,怪叔叔美育,116.440618,39.887777,5#20170617#cc6df862c3603ffdd3d9bbef2c39d963,餐饮服务;餐饮相关场所;餐饮相关, 
457,14037,太平庄中街与新都路交叉口东100米,昌平区,110114,北京市,北京市,晨光烧饼(兰各庄分店),116.379595,40.067085,c#20170618#e3a0a44fca60285e8aab08a41ecc4b0e,餐饮服务;餐饮相关场所;餐饮相关, 
458,14054,大石桥胡同与西绦南巷交叉口东50米,西城区,110102,北京市,北京市,BBQ爆香鱿鱼,116.391436,39.946628,z#20170617#c6cf4d3f9a1ef94f8e71fe6d6125daea,餐饮服务;餐饮相关场所;餐饮相关, 
459,14106,长城天地大厦1楼1-29号,延庆区,110119,北京市,北京市,杜康酒馆,115.98881,40.36217,d#20170618#5b0c0316052dbe4b218f45026a5676e9,餐饮服务;餐饮相关场所;餐饮相关, 
460,14150,宋庄镇小堡南街100号(景德镇瓷艺坊西20米),通州区,110112,北京市,北京市,八零故事,116.719144,39.946817,x#20170618#395f814ed37fde4cc7a905d88ae89eb7,餐饮服务;餐饮相关场所;餐饮相关, 
461,14152,马驹桥中学路附近,通州区,110112,北京市,北京市,来一碗米粉,116.558696,39.760149,8#20170621#9fa4ea77cf89853ccb1b824850d387f6,餐饮服务;餐饮相关场所;餐饮相关, 
462,14173,东直门医院对面小区门口,通州区,110112,北京市,北京市,美式炸鸡(怡乐北街),116.648491,39.888368,a#20170618#a738e63d144b0a722198ac62cabaa0c3,餐饮服务;餐饮相关场所;餐饮相关, 
463,14223,东双贝子坟路与双贝子坟路交叉口南50米,海淀区,110108,北京市,北京市,香河肉饼西安小吃,116.334568,39.898293,y#20170621#6a94386f967f96db689e307462d402a3,餐饮服务;餐饮相关场所;餐饮相关, 
464,14226,五爱屯西街58号附近,丰台区,110106,北京市,北京市,德州五香扒鸡,116.377637,39.800751,x#20170621#fbbb6e2acb3b7a10f2ddf21154ddf5d2,餐饮服务;餐饮相关场所;餐饮相关, 
465,14260,马连道茶缘茶城阳光通道B2-13,丰台区,110106,北京市,北京市,土库茶空间,116.326584,39.875536,f#20170618#cf1e11addfc0ac6b7f2506d855c3909b,餐饮服务;餐饮相关场所;餐饮相关, 
466,14303,北七家镇东三旗邮局路奥特超市楼下,昌平区,110114,北京市,北京市,正阳包子店,116.414197,40.086388,j#20170618#0ca2a2c19937b6d2f8cc9683bc9fb82d,餐饮服务;餐饮相关场所;餐饮相关, 
467,14315,雁栖路口东南200米,怀柔区,110116,北京市,北京市,馒头房(装备学院医院西北),116.661716,40.359199,a#20170618#417d610c1f3c38320c40abf5657fc135,餐饮服务;餐饮相关场所;餐饮相关, 
468,14363,林校北路与林校路交叉口西南50米,大兴区,110115,北京市,北京市,久久丫颈王(林校路店),116.338193,39.722098,f#20170618#e96bee481635a45d26d66c36046ef0ab,餐饮服务;餐饮相关场所;餐饮相关, 
469,14364,松兰堡东1号,昌平区,110114,北京市,北京市,老街坊土菜馆(沙河店),116.304602,40.1597,0#20170618#0ccac433afac5b63aa32b47b7ccd1812,餐饮服务;餐饮相关场所;餐饮相关, 
470,14380,云岗西路东王佐电厂外管站门口,丰台区,110106,北京市,北京市,老胡早点铺,116.148954,39.81141,f#20170618#42aa4bbb94300625cd79859b8441acb2,餐饮服务;餐饮相关场所;餐饮相关, 
471,14471,阎村镇阎吕路张庄村18号,房山区,110111,北京市,北京市,锅贴张(张庄店),116.09379,39.73606,u#20170618#92f53d725c8fd4910ec8bfaa5a3aa267,餐饮服务;餐饮相关场所;餐饮相关, 
472,14517, ,房山区,110111,北京市,北京市,烧烤露营点,116.198729,39.69255,g#20170618#ffbcfd78e30e93e7bed33d6b7f1529bb,餐饮服务;餐饮相关场所;餐饮相关, 
473,14519,拱辰南大街与长虹东路交叉口南150米,房山区,110111,北京市,北京市,烧饼大饼,116.14199,39.722937,6#20170618#c38b8ad62367e1a155e316b4119c5a55,餐饮服务;餐饮相关场所;餐饮相关, 
474,14529,燕山迎风街42号,房山区,110111,北京市,北京市,陈师傅牛肉拉面,115.953955,39.723706,1#20170618#befb5a1274fcac6d78f3b3fd94cc8157,餐饮服务;餐饮相关场所;餐饮相关, 
475,14572,商业街十字路口20号馍是多,怀柔区,110116,北京市,北京市,馍是多(商业街店),116.633237,40.314323,r#20170618#6a15e77c5cbc88ff6294bb73c157a629,餐饮服务;餐饮相关场所;餐饮相关, 
476,14577,京原路68号(莲石湖公园内),石景山区,110107,北京市,北京市,维兰火车餐厅,116.167341,39.892997,c#20170618#c0f62e18e08c1f4d27bd901f8abcd30b,餐饮服务;餐饮相关场所;餐饮相关, 
477,14593,总部基地丰葆路88号永旺梦乐城1层,丰台区,110106,北京市,北京市,抹茶工房(丰台永旺梦乐城店),116.292059,39.817946,n#20170618#524ddf4cd2d708986e2490077eb5003f,餐饮服务;餐饮相关场所;餐饮相关, 
478,14683,通朝大街398号,通州区,110112,北京市,北京市,聚兴斋,116.635135,39.891896,7#20170618#a08103ab0d572bebd0050486ecca385c,餐饮服务;餐饮相关场所;餐饮相关, 
479,14715,群星路与芳古路交叉口西北150米,丰台区,110106,北京市,北京市,一清羊汤(芳群园店),116.431022,39.86248,z#20170618#69a540ccba2d9be16f81fc77d2d25d25,餐饮服务;餐饮相关场所;餐饮相关, 
480,14738,河北村东路鹏程鲜肉店隔壁,顺义区,110113,北京市,北京市,潮州熟食武汉久久鸭,116.726707,40.128114,4#20170618#9f47d014ce793bc2776e11c0f44a5a9a,餐饮服务;餐饮相关场所;餐饮相关, 
481,14758,大有庄坡上村国际关系学院,海淀区,110108,北京市,北京市,国关食堂,116.286774,40.003965,b#20170618#aa42fa33cb045a5155c076b837cd0ad5,餐饮服务;餐饮相关场所;餐饮相关, 
482,14865,南小街南路16号附近,大兴区,110115,北京市,北京市,山东呛面馒头鑫主食,116.40975,39.785266,b#20170618#e92148f25ef6a3bab2c8cbcbb64a533f,餐饮服务;餐饮相关场所;餐饮相关, 
483,14902,房山南大街76号(华冠超市东侧30米),房山区,110111,北京市,北京市,杜氏烧鸡(美廉美店),115.98461,39.694183,1#20170618#8f452c9d8a5fb45718584464b0af9802,餐饮服务;餐饮相关场所;餐饮相关, 
484,14905,五道口卜蜂莲花2层超市出口,海淀区,110108,北京市,北京市,绝味鸭脖(五道口3店),116.33363,39.993376,1#20170618#703de1f80821e3568e1dcb5f0c708d5d,餐饮服务;餐饮相关场所;餐饮相关, 
485,14922,金融街园中园6号院51号楼,通州区,110112,北京市,北京市,糖豆帮,116.63753,39.94628,q#20170621#44707b5b9e931212f8074e7e1f80bb00,餐饮服务;餐饮相关场所;餐饮相关, 
486,14949,庑殿路北空小区101八方缘自助饺子,大兴区,110115,北京市,北京市,八方缘,116.437033,39.819447,v#20170618#f1f5ca67c24db6934e6c3281c15db334,餐饮服务;餐饮相关场所;餐饮相关, 
487,14953,五里坨街道高井甲32号,石景山区,110107,北京市,北京市,口口香食品公司,116.136794,39.945908,n#20170618#2678fa9478735f3923d3a1ca42d50504,餐饮服务;餐饮相关场所;餐饮相关, 
488,14978,地铁9号线丰台科技园站C口万达广场丰科店B1010,丰台区,110106,北京市,北京市,美珍香,116.299047,39.824701,f#20170618#06724fc73062436b19dad4ff589ac575,餐饮服务;餐饮相关场所;餐饮相关, 
489,14982,成寿寺东路甲19号(近户籍办事处),丰台区,110106,北京市,北京市,马记卤煮(方庄店),116.444525,39.853818,3#20170618#d0bba0e8cec9130b4687fe893a15b363,餐饮服务;餐饮相关场所;餐饮相关, 
490,14983,南苑路辅路西200米,丰台区,110106,北京市,北京市,上海特色包子铺,116.399946,39.813413,c#20170618#db5dda33602fd9f0a1dfef89603c1066,餐饮服务;餐饮相关场所;餐饮相关, 
491,14984,大海路16号,昌平区,110114,北京市,北京市,兰州老马牛肉拉面,116.441469,40.081119,1#20170618#54f18ef0610c8c09facaa55876678435,餐饮服务;餐饮相关场所;餐饮相关, 
492,14986,长阳镇碧桂园小区甲2号楼二段二层01、二段二层02,房山区,110111,北京市,北京市,家常菜酱肉大饼(碧桂园店),116.166215,39.758454,5#20170618#b6cfa12a9fe0951b4fcc263588d1c8c7,餐饮服务;餐饮相关场所;餐饮相关, 
493,15027,金星西路3号院3号楼绿地缤纷城B1层,大兴区,110115,北京市,北京市,花豆豆生煎,116.333602,39.764212,z#20170618#b2ca77f22d7603420187d5d75dbcd559,餐饮服务;餐饮相关场所;餐饮相关, 
494,15061,马驹桥商业街玉林烤鸭东行200米巧蜀娘石锅,通州区,110112,北京市,北京市,巧蜀娘(马驹桥店),116.557727,39.75846,5#20170618#c51542319f43de3da3c76ee9f18d6d4a,餐饮服务;餐饮相关场所;餐饮相关, 
495,15086,定泗路炫动时代溜冰场西20米,昌平区,110114,北京市,北京市,河南饭店,116.291928,40.11069,8#20170618#98daedc579cdfcffc78bcc91f8776b36,餐饮服务;餐饮相关场所;餐饮相关, 
496,15090,高丽营镇东马各庄村南门口,顺义区,110113,北京市,北京市,高原拉面,116.569165,40.13667,d#20170618#c6ec259fefce80bbe6db904c94bdc336,餐饮服务;餐饮相关场所;餐饮相关, 
497,15099,窦店镇水墨林夕小区,房山区,110111,北京市,北京市,玉龙云海美食城,116.065069,39.688518,5#20170618#dff5982a206248d30158a63b4d21e861,餐饮服务;餐饮相关场所;餐饮相关, 
498,15103,永顺八里桥市场金龙街60号,通州区,110112,北京市,北京市,长相逢,116.640135,39.915883,d#20170618#489f0a8df2231a815ccebed9cdfae767,餐饮服务;餐饮相关场所;餐饮相关, 
499,15198,梅市口东路与莲花池西路交叉口东50米,丰台区,110106,北京市,北京市,安徽传统发酵老面馒头,116.287481,39.8802,o#20170618#11dc45528ccfb1e403c74d087e040ce8,餐饮服务;餐饮相关场所;餐饮相关, 
500,15207,神牛路18号附近,昌平区,110114,北京市,北京市,第一佳大鸡排吉利大学店,116.16422,40.181304,6#20170618#c9335679b92760502b9bfb95a2e3c359,餐饮服务;餐饮相关场所;餐饮相关, 
501,15260,安宁庄西二条临6号,海淀区,110108,北京市,北京市,河狸家清云,116.321101,40.042613,p#20170618#6ea5e3b95db0d904ca9a47a6f696dea8,餐饮服务;餐饮相关场所;餐饮相关, 
502,15270,芙蓉北路东融乐华国际影院一楼,通州区,110112,北京市,北京市,苏鱼牧羊,116.677487,39.91952,c#20170618#c703a4b1e5cd0c13226335fe0b817ee7,餐饮服务;餐饮相关场所;餐饮相关, 
503,15279,滨河中路143号附近,通州区,110112,北京市,北京市,周记黑鸭(滨河南路),116.715724,39.882486,o#20170618#b42d1a78ec25c270708ae9c66b4e3641,餐饮服务;餐饮相关场所;餐饮相关, 
504,15288,天竺镇小王辛庄南路9号(北库),顺义区,110113,北京市,北京市,玉金圆食府(天竺店),116.569506,40.066414,u#20170618#4031faf6f93d7e2a5c6302432e34b8ca,餐饮服务;餐饮相关场所;餐饮相关, 
505,15290,长阳镇碧桂园小区2号楼段一层03段一层04,房山区,110111,北京市,北京市,西河居肉饼(碧桂园店),116.166043,39.758772,r#20170618#68b57b706fca6c3a132ee84c4ea5680c,餐饮服务;餐饮相关场所;餐饮相关, 
506,15413,欣荣南大街东150米,大兴区,110115,北京市,北京市,老陕手擀面,116.345037,39.787256,i#20170618#f0f828e6d314e7458516dc427013b152,餐饮服务;餐饮相关场所;餐饮相关, 
507,15569,马赛公馆北门康乃馨底商23号楼103室,大兴区,110115,北京市,北京市,美味红烧肉,116.313942,39.746828,a#20170618#15d6a76220c7647f228e8def71c4b56a,餐饮服务;餐饮相关场所;餐饮相关, 
508,15571,太平路与永定路交口往北约40米,海淀区,110108,北京市,北京市,第1佳大鸡排(永定路店),116.264796,39.900623,2#20170618#a23fcd83412871cd5510b056ad1ae43c,餐饮服务;餐饮相关场所;餐饮相关, 
509,15585,高碑店惠河南街1066号(九号温泉往东200米),朝阳区,110105,北京市,北京市,井冈山小院(四惠店),116.507375,39.90576,z#20170617#c7fd44cb64611645ac1dad7a8f55c33f,餐饮服务;餐饮相关场所;餐饮相关, 
510,15589,永外果园8号合生广场B1层,丰台区,110106,北京市,北京市,绝味鸭脖(合生广场店),116.397549,39.8556,3#20170618#f8437182f76be483972feb7f271373d6,餐饮服务;餐饮相关场所;餐饮相关, 
511,15591,五道口成府路28号华联商厦负一层(华联超市斜对面),海淀区,110108,北京市,北京市,7分甜(北京五道口华联店),116.339672,39.992226,g#20170618#3f2f8c3d2cf65993377351e800044bda,餐饮服务;餐饮相关场所;餐饮相关, 
512,15593,鼓楼东街73号,昌平区,110114,北京市,北京市,大同刀削面(昌平一店),116.235678,40.224604,m#20170618#e9941a598324f0ba0977e8cb0d35eda2,餐饮服务;餐饮相关场所;餐饮相关, 
513,15621,广茂大街与清宁路八巷交叉口北50米,大兴区,110115,北京市,北京市,山东呛面馒头,116.347974,39.753859,y#20170618#5380ee82be3b496efe31c002201a9803,餐饮服务;餐饮相关场所;餐饮相关, 
514,15657,兴丰大街二段116号,大兴区,110115,北京市,北京市,佟掌柜的奶茶,116.339481,39.745935,s#20170618#38d826ce2032b7565a73f91b8b69f42e,餐饮服务;餐饮相关场所;餐饮相关, 
515,15688,正阳桥北东安街头条18号,丰台区,110106,北京市,北京市,三丫包子铺(东安街店),116.277589,39.849561,d#20170618#69d54fef21b24884c5f24b10254d1e74,餐饮服务;餐饮相关场所;餐饮相关, 
516,15742,老三余路南50米,大兴区,110115,北京市,北京市,山东肉饼,116.376821,39.778858,h#20170618#3f4e6b760cf123c72bb29ab4a74f5f82,餐饮服务;餐饮相关场所;餐饮相关, 
517,15751,北清路王府医院对面,昌平区,110114,北京市,北京市,山东呛面大馒头(北清路),116.414634,40.104013,c#20170618#4435d2263289996608741727cd13be7e,餐饮服务;餐饮相关场所;餐饮相关, 
518,15759,苏庄北路与苏庄大街交叉口西南50米,房山区,110111,北京市,北京市,仁盛聚道口烧鸡,116.123434,39.729021,l#20170618#55a02dd6a4ecfc2adaa593442083b085,餐饮服务;餐饮相关场所;餐饮相关, 
519,15773,永外果园8号欣雅汇生活广场4F-4015-4016,丰台区,110106,北京市,北京市,合之叶手工春饼(欣雅汇店),116.398028,39.856033,8#20170618#93d1c566caf7616389065dde7719276b,餐饮服务;餐饮相关场所;餐饮相关, 
520,15786,东兴一区,顺义区,110113,北京市,北京市,山东呛面馒头房(信平大街),116.608872,40.137443,g#20170618#0172595eae5213104da6ca8e220539ad,餐饮服务;餐饮相关场所;餐饮相关, 
521,15792,兴华中街北50米附近,通州区,110112,北京市,北京市,轰炸大鱿鱼(马驹桥店),116.558936,39.759952,a#20170618#c08980ccf0a7091b3c234ba6f8ac6716,餐饮服务;餐饮相关场所;餐饮相关, 
522,15796,鲁谷路74号院北平房,石景山区,110107,北京市,北京市,老天桥熏鸡酱肉(石景山一店),116.243392,39.904072,8#20170618#99beabfdb72244c91e7ceee9246511f0,餐饮服务;餐饮相关场所;餐饮相关, 
523,15810,开发区西红门镇七村郁花园北侧,大兴区,110115,北京市,北京市,日月星辰生态园,116.335969,39.773323,q#20170618#94ff634a5099d70858be7521475efc9e,餐饮服务;餐饮相关场所;餐饮相关, 
524,15812,大窦路36号附近,房山区,110111,北京市,北京市,齐建广主食食品店,116.070329,39.672168,p#20170618#2b854c20cacf69525fab4e5290105edb,餐饮服务;餐饮相关场所;餐饮相关, 
525,15906,南三环西路84号附近,丰台区,110106,北京市,北京市,潮汕小厨,116.338759,39.847768,q#20170618#c0673946e0f6f7081bb0be044972786c,餐饮服务;餐饮相关场所;餐饮相关, 
526,16066,卢沟桥五里店西国兴汽车修理厂对面,丰台区,110106,北京市,北京市,养馨阁,116.245076,39.856344,x#20170621#6604dd5ee4a55fa2ae911bd03437686f,餐饮服务;餐饮相关场所;餐饮相关, 
527,16067,北苑东路与太歇路交叉口东50米,昌平区,110114,北京市,北京市,山东德州扒鸡特色卤肉,116.442649,40.07298,l#20170621#0499d38ebb2ff578907809637cace4bb,餐饮服务;餐饮相关场所;餐饮相关, 
528,16086,马驹桥二街金宝地公寓附近,通州区,110112,北京市,北京市,豆腐坊,116.556685,39.762779,s#20170618#9b11ac23de9882e7fda469e71a79cd94,餐饮服务;餐饮相关场所;餐饮相关, 
529,16093,天竺镇府前一街32号空港明珠大酒店G座,顺义区,110113,北京市,北京市,阿姨屋里,116.572628,40.061404,h#20170618#77a763545f5e57c6a5c7860098d23f63,餐饮服务;餐饮相关场所;餐饮相关, 
530,16131,沙河镇昌职路25号,昌平区,110114,北京市,北京市,来一炮小院烧烤,116.293533,40.148083,m#20170618#bd5999f50629edc88495cfd4f8c3a198,餐饮服务;餐饮相关场所;餐饮相关, 
531,16176,新顺北大街和幸福西街路口东130米(中小学保健所对面),顺义区,110113,北京市,北京市,就酱・肘子(幸福西街),116.652609,40.133283,5#20170618#06aef52df6f58527d83c0b7636d14c7d,餐饮服务;餐饮相关场所;餐饮相关, 
532,16184,马驹桥中学路附近,通州区,110112,北京市,北京市,津津有味,116.556148,39.762449,v#20170621#eb975f293233486c59942ee141c22187,餐饮服务;餐饮相关场所;餐饮相关, 
533,16251,张仪村北路99号院锦江之星里面,丰台区,110106,北京市,北京市,星连心茶餐厅,116.230767,39.883206,b#20170618#e10c65ca183f55b000d1a879108adc5e,餐饮服务;餐饮相关场所;餐饮相关, 
534,16284,来广营立汤路立水桥甲八号院,朝阳区,110105,北京市,北京市,七味小馆,116.415712,40.054852,a#20170617#17204faf7906bb8e74f8c198d2109f3c,餐饮服务;餐饮相关场所;餐饮相关, 
535,16343,富强路与富林巷交叉口东50米,大兴区,110115,北京市,北京市,鸭颈王板鸭,116.335377,39.737632,7#20170621#18756242fd84b09f3bf06eb2c111f56f,餐饮服务;餐饮相关场所;餐饮相关, 
536,16371,永外大街12号北京南站B1层,丰台区,110106,北京市,北京市,周黑鸭(北京南站1店),116.379543,39.864384,8#20170618#7d39cbb2f3a8b9469a6720a840861453,餐饮服务;餐饮相关场所;餐饮相关, 
537,16384,西井路静洋科技大厦底商15号,石景山区,110107,北京市,北京市,京城一绝,116.188298,39.934862,n#20170618#3eb13afe55e073e9f2bfc44963f9b691,餐饮服务;餐饮相关场所;餐饮相关, 
538,16468,前半壁街与小辛庄街交叉口东50米,顺义区,110113,北京市,北京市,北京宏晨阳馒头房,116.824951,40.153165,m#20170618#eea9d1d63e966e40d656e3b585872175,餐饮服务;餐饮相关场所;餐饮相关, 
539,16620,横二条59号附近,西城区,110102,北京市,北京市,蒙古烤肉串,116.375801,39.910488,h#20170617#43e9097d012ae5a0a02b3a9d315a5ec0,餐饮服务;餐饮相关场所;餐饮相关, 
540,16765,百沙路62号附近,昌平区,110114,北京市,北京市,草原印象,116.288492,40.150399,7#20170618#389970d70f540bc3f7ed1ebd0e1f3f4b,餐饮服务;餐饮相关场所;餐饮相关, 
541,16790,北门仓胡同6号-29天泽祥菜市场76号,东城区,110101,北京市,北京市,汪太太厨房,116.427859,39.934161,g#20170617#2ab5d144c00b10f4256fb27f57bf18fd,餐饮服务;餐饮相关场所;餐饮相关, 
542,16795,南锣鼓巷110-7号(近地铁南锣鼓巷站),东城区,110101,北京市,北京市,南锣茶太良品,116.403331,39.934453,m#20170616#dad7e0ec714543e4d07a8be1e1960348,餐饮服务;餐饮相关场所;餐饮相关, 
543,16797,白纸坊东街与盆儿胡同交叉口西南50米,西城区,110102,北京市,北京市,担担面,116.370507,39.878344,4#20170617#08b263ef85fd5b78a493e4c1eaf48302,餐饮服务;餐饮相关场所;餐饮相关, 
544,16838,东礼路与魏石路交叉口北100米,大兴区,110115,北京市,北京市,香村肉饼,116.402399,39.631705,j#20170618#4481b11804b18e2ebb952e4eba42b2f0,餐饮服务;餐饮相关场所;餐饮相关, 
545,16955,朝阳门地铁站G口通往银河soho通道入口处,东城区,110101,北京市,北京市,周记拔丝蛋糕,116.43275,39.924088,z#20170617#8f799581149a64245e112a975a5f76c9,餐饮服务;餐饮相关场所;餐饮相关, 
546,16996,观音寺街道团河路48号院3号楼一层(有家超市入口处),大兴区,110115,北京市,北京市,筷乐小厨(团河路店),116.35284,39.736172,e#20170618#2a17ef356a644d842efbbecd689e0ac6,餐饮服务;餐饮相关场所;餐饮相关, 
547,17121,华佗路1附近,大兴区,110115,北京市,北京市,阿泰包子(华佗路),116.322435,39.674624,r#20170618#46436b1f9e773058019a749593c5eb99,餐饮服务;餐饮相关场所;餐饮相关, 
548,17225,广渠门内大街新景家园16号楼底商,东城区,110101,北京市,北京市,榴莲贝贝(广渠门店),116.426651,39.893967,2#20170617#d8c1b95174deec03809c48abdf18e14f,餐饮服务;餐饮相关场所;餐饮相关, 
549,17234,天宁寺前街24-2号附近,西城区,110102,北京市,北京市,兰州拉面盖饭,116.34352,39.892222,r#20170617#12bff1d9ce4d51e6bec46ada930a85e0,餐饮服务;餐饮相关场所;餐饮相关, 
550,17248,宣武门西大街107号底商(通化葡萄酒股份有限公司北京分理处),西城区,110102,北京市,北京市,帝尼尔进口葡萄酒直购,116.364493,39.900096,o#20170617#c6358ba623c99f85d18b705ebd74293d,餐饮服务;餐饮相关场所;餐饮相关, 
551,17270,菊儿胡同菊儿小区内(印巷小馆南锣鼓巷店旁),东城区,110101,北京市,北京市,诺贝思蛋糕店(南锣鼓巷店),116.40378,39.93922,v#20170617#fa2586c1bfc3b59909b9f3441c4a7412,餐饮服务;餐饮相关场所;餐饮相关, 
552,17282,大石碑胡同与鼓楼西大街交叉口西50米,西城区,110102,北京市,北京市,叫了个鸡,116.393218,39.940752,9#20170617#eecf6603f20b9fb2a9b829a318855ddf,餐饮服务;餐饮相关场所;餐饮相关, 
553,17396,粉房琉璃街162-3号,西城区,110102,北京市,北京市,老北京酱肉店,116.381916,39.883921,g#20170617#ae14064b071810199da4cba45fd420f7,餐饮服务;餐饮相关场所;餐饮相关, 
554,17417,南八宝胡同与苏州胡同交叉口东50米,东城区,110101,北京市,北京市,茂林必华食品店,116.420556,39.905517,5#20170617#27cb474aa6f6819a022fc2d2b162c239,餐饮服务;餐饮相关场所;餐饮相关, 
555,17482,城角西路与政府街西路交叉口西南50米,昌平区,110114,北京市,北京市,聚福脆皮烤鸭,116.22251,40.21994,8#20170618#2ff2f2e1fcb45e7a355f51108e7d2d23,餐饮服务;餐饮相关场所;餐饮相关, 
556,17551,水木兰亭1号B1楼家乐福超市TZHB116号,顺义区,110113,北京市,北京市,周黑鸭(北京天竺家乐福店),116.565184,40.062228,e#20170618#c47f1172bcc84c157200b9b9fbc022c3,餐饮服务;餐饮相关场所;餐饮相关, 
557,17886,张仪村路4号院内,丰台区,110106,北京市,北京市,橡树果子手工烘焙坊,116.233559,39.885718,y#20170618#ab6beedfc400da301bd08ed9dda94dc4,餐饮服务;餐饮相关场所;餐饮相关, 
558,17935,育知东路上北鑫座2层,昌平区,110114,北京市,北京市,正大烤肉,116.33307,40.079654,o#20170618#7494a87db5a8852c5867b7f4fc1eeacc,餐饮服务;餐饮相关场所;餐饮相关, 
559,17947,北七家镇东三旗回南路顺昌诊所西行100米路南行10米,昌平区,110114,北京市,北京市,旺旺果木烤鸭,116.416913,40.088371,a#20170618#179c7af98d4de9746fcd524a124b0d82,餐饮服务;餐饮相关场所;餐饮相关, 
560,18070,安贞西里五区4号-01层4-1内B1-04A,朝阳区,110105,北京市,北京市,九格烫烫记(安贞华联店),116.4013,39.970499,n#20170617#9660e1a74fdf1b18ec3816964387bd10,餐饮服务;餐饮相关场所;餐饮相关, 
561,18074,东四十一条与横街交叉口东南50米,东城区,110101,北京市,北京市,十一条56号,116.421888,39.934268,6#20170617#d36b3a2c7accb727ac99c9c3a3ca1cc1,餐饮服务;餐饮相关场所;餐饮相关, 
562,18133,左安门内大街16号(近龙潭湖公园西北门，乘车路线:6路8路122路34路561路.5号线天坛东门站下),东城区,110101,北京市,北京市,龙潭烤鸭店,116.435384,39.880104,r#20170617#dda1225da3cf18ba885af5956b927e92,餐饮服务;餐饮相关场所;餐饮相关, 
563,18134,新街口外大街19号北师大东门天桥旁,西城区,110102,北京市,北京市,老北京包子(北师大店),116.371648,39.955215,e#20170617#8adb5878f45e01e1aeed0f992eb28404,餐饮服务;餐饮相关场所;餐饮相关, 
564,18223,雁栖镇乐园庄村村委会东100米,怀柔区,110116,北京市,北京市,聚福缘饭店(乐园庄店),116.675658,40.346309,y#20170618#22cf41fe16b80d04a99f763887bb89be,餐饮服务;餐饮相关场所;餐饮相关, 
565,18240,城南街道介山社区乙3-35号,昌平区,110114,北京市,北京市,天津风味烧饼(介山店),116.257907,40.210521,8#20170618#cd160082d9d2b817476cdd34c0be3c15,餐饮服务;餐饮相关场所;餐饮相关, 
566,18287,永定河西大堤附近,石景山区,110107,北京市,北京市,京韵茶香,116.121353,39.935618,e#20170618#e06910e3608778b5ca976565040d6c6e,餐饮服务;餐饮相关场所;餐饮相关, 
567,18301,黄村兴盛街天健广场A座103底商,大兴区,110115,北京市,北京市,宽店烧烤(大兴店),116.317683,39.753405,b#20170618#427bb7972ae075547a357b1b8283d30f,餐饮服务;餐饮相关场所;餐饮相关, 
568,18327,北土城西路-昌平路云冈酒店旁,海淀区,110108,北京市,北京市,巴渝家常菜,116.380995,39.976554,u#20170618#41096430d763e895d2435a8835857005,餐饮服务;餐饮相关场所;餐饮相关, 
569,18341,廊房二条40号,西城区,110102,北京市,北京市,廊坊二条陈记卤煮,116.396655,39.897137,b#20170617#79040cfd6a9b0417dcd45f661551b5d5,餐饮服务;餐饮相关场所;餐饮相关, 
570,18448,西单北大街大酱坊胡同7号,西城区,110102,北京市,北京市,山西烧饼,116.374907,39.918821,5#20170617#41328abf8aebe7bf5096a05f5a8ef00a,餐饮服务;餐饮相关场所;餐饮相关, 
571,18497,营房西街23号附近,东城区,110101,北京市,北京市,麻辣烫之家(葱店西街),116.424447,39.886129,1#20170617#eb56db8ab5706d20951cd824d5042b2a,餐饮服务;餐饮相关场所;餐饮相关, 
572,18573,南苑公益西桥乐天玛特二层,丰台区,110106,北京市,北京市,悠悠冻酸奶,116.369459,39.83273,g#20170618#327e945286bbf99bf3309ec9f0c62d6d,餐饮服务;餐饮相关场所;餐饮相关, 
573,18576,新华西街58号院1号楼2层251,通州区,110112,北京市,北京市,拼豆夜宵(通州一店),116.643117,39.905432,z#20170618#575be2e5a23f8801b7844a20d9cbb875,餐饮服务;餐饮相关场所;餐饮相关, 
574,18696,马连道路25号新年华购物中心F5层,西城区,110102,北京市,北京市,北角鸡蛋仔(新年华购物中心),116.325802,39.877156,s#20170617#2f56c4ce8540bd2e79c6a4802a0aa256,餐饮服务;餐饮相关场所;餐饮相关, 
575,18709,农丰里1号楼南侧平房(百富国际大厦东侧),朝阳区,110105,北京市,北京市,名客佳大鸡排(东大桥店),116.451826,39.924129,2#20170617#193664d70f5bf6c93598a5704c7fdc75,餐饮服务;餐饮相关场所;餐饮相关, 
576,18749,大栅栏西街98号,西城区,110102,北京市,北京市,哈尔滨中央大街马迭尔冰棍,116.391719,39.894398,y#20170617#e611d752d07c5dbf48c1613a2878d891,餐饮服务;餐饮相关场所;餐饮相关, 
577,18799,魏善庄镇半壁店村北京华远高科电缆有限公司边上小道向东方向走400米,大兴区,110115,北京市,北京市,神憩园酒家,116.40823,39.62784,z#20170618#3a340f2920acd7f5108c9f2a0a93f11d,餐饮服务;餐饮相关场所;餐饮相关, 
578,18839,光泽胡同与新街口东街交叉口西50米,西城区,110102,北京市,北京市,王记烧烤,116.374439,39.942165,a#20170617#e50177b493c3892c61cc32204d2c70b7,餐饮服务;餐饮相关场所;餐饮相关, 
579,18841,车公庄大街北里1号,西城区,110102,北京市,北京市,库尔班大叔,116.348492,39.934834,g#20170617#074bf91bf1fc0fda92fd6037aac6fd0b,餐饮服务;餐饮相关场所;餐饮相关, 
580,18883,鼓楼南大街3号,昌平区,110114,北京市,北京市,绝味鸭脖(鼓楼南街2店),116.233247,40.223651,3#20170618#d332476e3f7f2faf90a6d569c79d7c56,餐饮服务;餐饮相关场所;餐饮相关, 
581,18918,建材城西路,海淀区,110108,北京市,北京市,7号炸鸡,116.332647,40.057416,2#20170618#05e0abbfe0c241b047b21f3b3439cb4c,餐饮服务;餐饮相关场所;餐饮相关, 
582,19004,右安门外大街3号楼附近,丰台区,110106,北京市,北京市,DailyCafe,116.364092,39.866341,j#20170618#9522f678ff28cba0f9cf6233884060a5,餐饮服务;餐饮相关场所;餐饮相关, 
